{"type":"FeatureCollection","features":[{"type":"Feature","properties":{"id":"brew-to-brew-relay-historical-course","adventureIds":["brew-to-brew-relay-2013"],"category":"relay","source":"Brew to Brew historical race archives and preserved participant guide exchange sequence","sourceUrl":"https://abcdocz.com/doc/965987/your-2015-participant-guide-","distanceMi":44.4,"routeType":"historical-course-overview","provenance":"historical-course","provenanceType":"historical-course","note":"Shared historical full relay overview connecting documented course anchors from Boulevard Brewery to the bridge by Lawrence City Hall. This is intentionally simplified exchange/corridor geometry, not turn-by-turn GPS and not the user's individual-leg recording."},"geometry":{"type":"LineString","coordinates":[[-94.596669,39.081978],[-94.722098,39.087725],[-94.820038,39.06196],[-95.03914,39.00139],[-95.16814,38.98324],[-95.2357,38.9762]]}}]}