{"type":"FeatureCollection","features":[{"type":"Feature","id":"strava-10926255561","properties":{"id":"strava-10926255561","adventureIds":["frisco-brewski-2024"],"category":"nordic","stravaActivityId":"10926255561","source":"Strava GPX export","provenanceType":"personal-gps","note":"Personal GPS recording from the 2024 Frisco BrewSki; BrewSki is an untimed Nordic event, not a race."},"geometry":{"type":"LineString","coordinates":[[-106.077409,39.57505],[-106.076997,39.575762],[-106.076079,39.576945],[-106.074423,39.57752],[-106.074513,39.578521],[-106.075644,39.577271],[-106.076922,39.575965],[-106.077558,39.575068],[-106.077558,39.57507],[-106.077648,39.575065],[-106.077662,39.575265],[-106.077852,39.575918],[-106.078824,39.57516],[-106.079899,39.57484],[-106.079541,39.575616],[-106.079453,39.575956],[-106.079405,39.576054],[-106.079191,39.576672],[-106.078631,39.57778],[-106.078759,39.578091],[-106.078255,39.579025],[-106.077301,39.579449],[-106.076576,39.579921],[-106.075753,39.580262],[-106.074973,39.580198],[-106.074599,39.580122],[-106.074696,39.580046],[-106.075038,39.579831],[-106.076365,39.578733],[-106.077006,39.57814],[-106.07721,39.577922],[-106.077085,39.578044],[-106.076558,39.578538],[-106.075767,39.579222],[-106.075039,39.579854],[-106.074779,39.58007],[-106.074932,39.58019],[-106.07745,39.579328],[-106.078746,39.578096],[-106.078888,39.577292],[-106.079307,39.576222],[-106.079276,39.576143],[-106.079527,39.575606],[-106.079044,39.574985],[-106.077965,39.575781],[-106.077273,39.575218],[-106.077599,39.574915],[-106.07759,39.575053]]}},{"type":"Feature","id":"strava-643102245","properties":{"id":"strava-643102245","adventureIds":["ugly-sweater-run-2012"],"category":"run","stravaActivityId":"643102245","source":"Strava FIT export","provenance":"personal-gps","provenanceType":"personal-gps","routeResolution":"full-source-track-gap-split-180m","sourcePointCount":351,"note":"Personal GPS recording from the December 1, 2012 Ugly Sweater Fun Run in Lawrence, Kansas; all 351 recorded FIT positions are retained."},"geometry":{"type":"LineString","coordinates":[[-95.239474,38.971108],[-95.239477,38.971083],[-95.239494,38.970992],[-95.239501,38.970892],[-95.239493,38.970787],[-95.239485,38.970688],[-95.239481,38.970591],[-95.239474,38.970492],[-95.239463,38.970388],[-95.239458,38.970284],[-95.239459,38.970179],[-95.239461,38.970077],[-95.239474,38.969977],[-95.239479,38.969873],[-95.239479,38.969769],[-95.239473,38.969664],[-95.239479,38.969566],[-95.23951,38.969478],[-95.239594,38.969409],[-95.239738,38.969417],[-95.239879,38.969426],[-95.240018,38.969424],[-95.240134,38.969415],[-95.240263,38.969405],[-95.240379,38.969407],[-95.240516,38.969409],[-95.240594,38.969484],[-95.240646,38.969568],[-95.240628,38.96966],[-95.240633,38.969764],[-95.240633,38.969869],[-95.240628,38.969977],[-95.240629,38.97008],[-95.240629,38.970177],[-95.24064,38.970271],[-95.240631,38.970377],[-95.240617,38.970488],[-95.240613,38.970587],[-95.240618,38.970681],[-95.240625,38.970783],[-95.24064,38.970898],[-95.240633,38.971001],[-95.240654,38.971091],[-95.240739,38.971169],[-95.240853,38.971192],[-95.240993,38.971205],[-95.241113,38.971207],[-95.241251,38.971204],[-95.241376,38.971211],[-95.241494,38.971218],[-95.241612,38.971205],[-95.241696,38.971129],[-95.241707,38.971026],[-95.241737,38.970919],[-95.241743,38.970806],[-95.24173,38.970709],[-95.241709,38.970598],[-95.241723,38.970493],[-95.24173,38.970397],[-95.241731,38.970305],[-95.241722,38.970203],[-95.241725,38.970092],[-95.241723,38.969978],[-95.24173,38.96988],[-95.241737,38.969784],[-95.24174,38.969683],[-95.241766,38.969571],[-95.241792,38.969453],[-95.24186,38.969363],[-95.241988,38.969349],[-95.242121,38.96938],[-95.242244,38.969386],[-95.242375,38.969386],[-95.242515,38.969377],[-95.24264,38.969381],[-95.242766,38.969398],[-95.242889,38.969449],[-95.242944,38.969543],[-95.242956,38.969635],[-95.242967,38.969726],[-95.24297,38.969831],[-95.242976,38.969927],[-95.242964,38.970023],[-95.242963,38.970125],[-95.242927,38.970217],[-95.242906,38.970316],[-95.242907,38.970421],[-95.242879,38.970524],[-95.242899,38.97062],[-95.242902,38.970717],[-95.242891,38.970821],[-95.24289,38.970915],[-95.242887,38.971007],[-95.242896,38.971101],[-95.24295,38.971187],[-95.243046,38.971244],[-95.243164,38.971255],[-95.243315,38.97125],[-95.243457,38.971243],[-95.243595,38.971255],[-95.243723,38.971309],[-95.243833,38.971342],[-95.243961,38.971317],[-95.244033,38.971236],[-95.244073,38.971148],[-95.244075,38.971037],[-95.244081,38.97093],[-95.244089,38.970837],[-95.244107,38.970736],[-95.244096,38.970641],[-95.244091,38.970535],[-95.244092,38.970441],[-95.244103,38.970344],[-95.244112,38.970246],[-95.244129,38.970138],[-95.244117,38.970026],[-95.244117,38.969927],[-95.24411,38.969823],[-95.244115,38.969721],[-95.24411,38.969618],[-95.244109,38.96951],[-95.244145,38.969412],[-95.244274,38.969391],[-95.244395,38.969379],[-95.244523,38.969373],[-95.244648,38.969366],[-95.24479,38.969363],[-95.244935,38.969363],[-95.245079,38.969365],[-95.245211,38.969383],[-95.245273,38.969467],[-95.245253,38.969571],[-95.245242,38.969671],[-95.245251,38.969769],[-95.245249,38.969874],[-95.245258,38.969979],[-95.245258,38.970087],[-95.245255,38.970194],[-95.245244,38.970302],[-95.245246,38.97041],[-95.245233,38.970509],[-95.245242,38.970611],[-95.245249,38.970714],[-95.245248,38.970819],[-95.24525,38.970925],[-95.245241,38.971029],[-95.245241,38.971133],[-95.245286,38.971234],[-95.245414,38.971261],[-95.245532,38.971245],[-95.245649,38.971235],[-95.245765,38.971237],[-95.245892,38.971239],[-95.24601,38.971253],[-95.246148,38.971246],[-95.246269,38.971241],[-95.246386,38.971209],[-95.246518,38.971212],[-95.246636,38.971221],[-95.246751,38.97122],[-95.246893,38.97123],[-95.247035,38.971235],[-95.247166,38.971234],[-95.247292,38.971235],[-95.247415,38.971228],[-95.247525,38.971198],[-95.247659,38.971206],[-95.24778,38.971212],[-95.247921,38.971225],[-95.248051,38.971218],[-95.248174,38.971221],[-95.248289,38.971234],[-95.248431,38.971215],[-95.248546,38.971239],[-95.248407,38.971263],[-95.248272,38.971266],[-95.248132,38.971277],[-95.248011,38.97128],[-95.24788,38.971285],[-95.24776,38.971298],[-95.247639,38.971303],[-95.247497,38.971301],[-95.247363,38.971301],[-95.24723,38.971294],[-95.247103,38.971294],[-95.246973,38.971299],[-95.246845,38.971302],[-95.246727,38.971302],[-95.246587,38.971303],[-95.246448,38.971309],[-95.246307,38.971306],[-95.246172,38.971317],[-95.246033,38.971326],[-95.245889,38.971313],[-95.245748,38.971302],[-95.245607,38.971284],[-95.245485,38.97128],[-95.245341,38.971278],[-95.245261,38.971202],[-95.24527,38.971095],[-95.245245,38.970997],[-95.245228,38.970894],[-95.245231,38.970787],[-95.245217,38.970687],[-95.245229,38.97055],[-95.245238,38.97046],[-95.245246,38.970355],[-95.245232,38.970254],[-95.245249,38.970144],[-95.245237,38.970048],[-95.24522,38.969946],[-95.245221,38.969845],[-95.245227,38.969744],[-95.245212,38.969644],[-95.245198,38.969544],[-95.245127,38.969464],[-95.245011,38.969431],[-95.244892,38.96942],[-95.244775,38.969417],[-95.244656,38.969401],[-95.244517,38.969409],[-95.244391,38.969416],[-95.244248,38.96941],[-95.244131,38.969444],[-95.244111,38.969536],[-95.244124,38.969638],[-95.244167,38.969734],[-95.244157,38.969843],[-95.244157,38.969945],[-95.244157,38.970051],[-95.244156,38.970143],[-95.244152,38.970255],[-95.244156,38.970363],[-95.244164,38.970482],[-95.244175,38.970584],[-95.244164,38.970676],[-95.244169,38.970769],[-95.244172,38.970868],[-95.244169,38.970974],[-95.244163,38.971083],[-95.244097,38.971165],[-95.243984,38.971216],[-95.243869,38.971233],[-95.243749,38.97124],[-95.243624,38.971245],[-95.243488,38.971264],[-95.243355,38.971274],[-95.243219,38.971273],[-95.243091,38.971248],[-95.242987,38.97118],[-95.242946,38.971094],[-95.242915,38.970994],[-95.242902,38.970892],[-95.242888,38.970785],[-95.242876,38.97069],[-95.242924,38.970594],[-95.242924,38.970488],[-95.242906,38.970391],[-95.24291,38.970287],[-95.242896,38.970179],[-95.242886,38.970084],[-95.242882,38.969981],[-95.242885,38.969865],[-95.242907,38.969761],[-95.242888,38.969666],[-95.242794,38.969593],[-95.242696,38.969527],[-95.242586,38.969494],[-95.242447,38.969496],[-95.242329,38.969474],[-95.242213,38.969455],[-95.242067,38.969443],[-95.241948,38.969453],[-95.241832,38.9695],[-95.241769,38.96959],[-95.241782,38.969688],[-95.241793,38.969786],[-95.24179,38.969882],[-95.2418,38.969989],[-95.241773,38.970094],[-95.241782,38.970185],[-95.241788,38.970284],[-95.24179,38.970393],[-95.241802,38.970503],[-95.241791,38.970611],[-95.24179,38.970701],[-95.241786,38.970814],[-95.241796,38.970933],[-95.241794,38.971052],[-95.241752,38.971141],[-95.241644,38.971187],[-95.241518,38.971226],[-95.241408,38.971259],[-95.241273,38.971279],[-95.24115,38.971289],[-95.241028,38.971294],[-95.240907,38.971299],[-95.240791,38.971268],[-95.240717,38.971183],[-95.240671,38.971097],[-95.240623,38.970994],[-95.240612,38.970879],[-95.240617,38.970788],[-95.240609,38.970696],[-95.240627,38.970588],[-95.240642,38.970495],[-95.240644,38.970391],[-95.240637,38.970289],[-95.240658,38.97019],[-95.240642,38.9701],[-95.240617,38.969992],[-95.240613,38.969881],[-95.240628,38.969787],[-95.240618,38.969684],[-95.240619,38.969575],[-95.240576,38.969476],[-95.240473,38.969399],[-95.24035,38.969379],[-95.24022,38.969383],[-95.240096,38.969386],[-95.239973,38.969364],[-95.23986,38.969335],[-95.239729,38.969331],[-95.239613,38.969344],[-95.239516,38.969399],[-95.239479,38.969487],[-95.239488,38.969588],[-95.239477,38.969687],[-95.239473,38.969788],[-95.239471,38.969889],[-95.239481,38.970009],[-95.239472,38.970102],[-95.239459,38.970196],[-95.23947,38.970288],[-95.239475,38.97039],[-95.239475,38.970495],[-95.239484,38.970592],[-95.23948,38.970687],[-95.239473,38.970787],[-95.239465,38.970892],[-95.239463,38.970993],[-95.239464,38.971089],[-95.239465,38.971195],[-95.239461,38.971332],[-95.239466,38.971451],[-95.23948,38.971564],[-95.239502,38.971668],[-95.239516,38.971762],[-95.239489,38.971863],[-95.239465,38.971958],[-95.239439,38.972026]]}}]}
