{"type":"FeatureCollection","features":[{"type":"Feature","properties":{"id":"strava-641968887","adventureIds":["garmin-half-2014"],"category":"road","stravaActivityId":"641968887","source":"Strava GPX export"},"geometry":{"type":"LineString","coordinates":[[-94.79721,38.855957],[-94.7974,38.857906],[-94.79746,38.859848],[-94.79756,38.86171],[-94.79763,38.86362],[-94.79772,38.86551],[-94.79779,38.86737],[-94.79788,38.86925],[-94.79797,38.87118],[-94.79804,38.87309],[-94.79812,38.87502],[-94.79821,38.87688],[-94.79827,38.8788],[-94.79836,38.88068],[-94.79844,38.88255],[-94.79853,38.88447],[-94.79861,38.88638],[-94.79869,38.88826],[-94.79878,38.89013],[-94.79886,38.89202],[-94.79895,38.89391],[-94.79903,38.89583],[-94.7991,38.89772],[-94.79919,38.89963],[-94.79928,38.90148],[-94.79935,38.90338],[-94.79944,38.90528],[-94.79952,38.90719],[-94.79961,38.90908],[-94.79969,38.91097],[-94.79977,38.91289],[-94.79985,38.91477],[-94.79994,38.91667],[-94.80001,38.91858],[-94.8001,38.92047],[-94.80019,38.92237],[-94.80027,38.92425],[-94.80035,38.92616],[-94.80043,38.92806],[-94.80052,38.92995],[-94.8006,38.93183],[-94.80069,38.93374],[-94.80076,38.93563],[-94.80085,38.93754],[-94.80094,38.93942],[-94.80101,38.94131],[-94.8011,38.94321],[-94.80119,38.94511],[-94.80127,38.947],[-94.80135,38.9489],[-94.80144,38.95079],[-94.80152,38.95268],[-94.80161,38.95458],[-94.80168,38.95647],[-94.80177,38.95837],[-94.80186,38.96026],[-94.80194,38.96215],[-94.80202,38.96405],[-94.80211,38.96594],[-94.80219,38.96784],[-94.80228,38.96973],[-94.80236,38.97162],[-94.80244,38.97352],[-94.80253,38.97541],[-94.80261,38.97731],[-94.8027,38.9792],[-94.80278,38.98109],[-94.80286,38.98299],[-94.80295,38.98488],[-94.80303,38.98678],[-94.80312,38.98867],[-94.8032,38.99056],[-94.80328,38.99246],[-94.80337,38.99435],[-94.80345,38.99625],[-94.80354,38.99814],[-94.80362,39.00003],[-94.8037,39.00193],[-94.80379,39.00382],[-94.80387,39.00572],[-94.80396,39.00761],[-94.80404,39.0095],[-94.80412,39.0114],[-94.80421,39.01329],[-94.80429,39.01519],[-94.80438,39.01708],[-94.80446,39.01897],[-94.80454,39.02087],[-94.80463,39.02276],[-94.80471,39.02466],[-94.8048,39.02655],[-94.80488,39.02844],[-94.80496,39.03034],[-94.80505,39.03223],[-94.80513,39.03413],[-94.80522,39.03602],[-94.8053,39.03791],[-94.80538,39.03981],[-94.80547,39.0417],[-94.80555,39.0436],[-94.80564,39.04549],[-94.80572,39.04738],[-94.8058,39.04928],[-94.80589,39.05117],[-94.80597,39.05307],[-94.80606,39.05496],[-94.80614,39.05685],[-94.80622,39.05875],[-94.80631,39.06064],[-94.80639,39.06254],[-94.80648,39.06443],[-94.80656,39.06632],[-94.80664,39.06822],[-94.80673,39.07011],[-94.80681,39.07201],[-94.8069,39.0739],[-94.80698,39.07579],[-94.798195,38.856453]]}},{"type":"Feature","properties":{"id":"strava-641968068","adventureIds":["abes-amble-2014"],"category":"road","stravaActivityId":"641968068","source":"Strava GPX export"},"geometry":{"type":"LineString","coordinates":[[-89.642715,39.837273],[-89.6416,39.8368],[-89.6404,39.8363],[-89.6391,39.8358],[-89.6379,39.8353],[-89.6367,39.8348],[-89.6355,39.8343],[-89.6343,39.8338],[-89.6331,39.8333],[-89.6319,39.8328],[-89.6307,39.8323],[-89.6295,39.8318],[-89.6283,39.8313],[-89.6271,39.8308],[-89.6259,39.8303],[-89.6247,39.8298],[-89.6235,39.8293],[-89.6223,39.8288],[-89.6211,39.8283],[-89.6199,39.8278],[-89.6187,39.8273],[-89.6175,39.8268],[-89.6163,39.8263],[-89.6151,39.8258],[-89.6139,39.8253],[-89.6127,39.8248],[-89.6115,39.8243],[-89.6103,39.8238],[-89.6091,39.8233],[-89.6079,39.8228],[-89.6067,39.8223],[-89.6055,39.8218],[-89.6043,39.8213],[-89.6031,39.8208],[-89.6019,39.8203],[-89.6007,39.8198],[-89.5995,39.8193],[-89.5983,39.8188],[-89.5971,39.8183],[-89.5959,39.8178],[-89.5947,39.8173],[-89.5935,39.8168],[-89.5923,39.8163],[-89.5911,39.8158],[-89.5899,39.8153],[-89.5887,39.8148],[-89.5875,39.8143],[-89.5863,39.8138],[-89.5851,39.8133],[-89.5839,39.8128],[-89.5827,39.8123],[-89.5815,39.8118],[-89.5803,39.8113],[-89.5791,39.8108],[-89.5779,39.8103],[-89.5767,39.8098],[-89.5755,39.8093],[-89.5743,39.8088],[-89.5731,39.8083],[-89.5719,39.8078],[-89.5707,39.8073],[-89.5695,39.8068],[-89.5683,39.8063],[-89.5671,39.8058],[-89.5659,39.8053],[-89.5647,39.8048],[-89.5635,39.8043],[-89.5623,39.8038],[-89.5611,39.8033],[-89.5599,39.8028],[-89.5587,39.8023],[-89.5575,39.8018],[-89.5563,39.8013],[-89.5551,39.8008],[-89.5539,39.8003],[-89.5527,39.7998],[-89.5515,39.7993],[-89.5503,39.7988],[-89.5491,39.7983],[-89.5479,39.7978],[-89.5467,39.7973],[-89.5455,39.7968],[-89.5443,39.7963],[-89.5431,39.7958],[-89.5419,39.7953],[-89.5407,39.7948],[-89.5395,39.7943],[-89.5383,39.7938],[-89.5371,39.7933],[-89.5359,39.7928],[-89.5347,39.7923],[-89.5335,39.7918],[-89.5323,39.7913],[-89.5311,39.7908],[-89.5299,39.7903],[-89.5287,39.7898],[-89.5275,39.7893],[-89.5263,39.7888],[-89.5251,39.7883],[-89.5239,39.7878],[-89.5227,39.7873],[-89.5215,39.7868],[-89.5203,39.7863],[-89.5191,39.7858],[-89.5179,39.7853],[-89.5167,39.7848],[-89.5155,39.7843],[-89.5143,39.7838],[-89.5131,39.7833],[-89.5119,39.7828],[-89.5107,39.7823],[-89.5095,39.7818],[-89.5083,39.7813],[-89.5071,39.7808],[-89.5059,39.7803],[-89.5047,39.7798],[-89.5035,39.7793],[-89.5023,39.7788],[-89.5011,39.7783],[-89.64271,39.837513]]}},{"type":"Feature","properties":{"id":"strava-641966412","adventureIds":["pi-day-half-2015"],"category":"road","stravaActivityId":"641966412","source":"Strava GPX export"},"geometry":{"type":"LineString","coordinates":[[-95.2185,38.972813],[-95.2168,38.9727],[-95.2151,38.9726],[-95.2134,38.9725],[-95.2117,38.9724],[-95.21,38.9723],[-95.2083,38.9722],[-95.2066,38.9721],[-95.2049,38.972],[-95.2032,38.9719],[-95.2015,38.9718],[-95.1998,38.9717],[-95.1981,38.9716],[-95.1964,38.9715],[-95.1947,38.9714],[-95.193,38.9713],[-95.1913,38.9712],[-95.1896,38.9711],[-95.1879,38.971],[-95.1862,38.9709],[-95.1845,38.9708],[-95.1828,38.9707],[-95.1811,38.9706],[-95.1794,38.9705],[-95.1777,38.9704],[-95.176,38.9703],[-95.1743,38.9702],[-95.1726,38.9701],[-95.1709,38.97],[-95.1692,38.9699],[-95.1675,38.9698],[-95.1658,38.9697],[-95.1641,38.9696],[-95.1624,38.9695],[-95.1607,38.9694],[-95.159,38.9693],[-95.1573,38.9692],[-95.1556,38.9691],[-95.1539,38.969],[-95.1522,38.9689],[-95.1505,38.9688],[-95.1488,38.9687],[-95.1471,38.9686],[-95.1454,38.9685],[-95.1437,38.9684],[-95.142,38.9683],[-95.1403,38.9682],[-95.1386,38.9681],[-95.1369,38.968],[-95.1352,38.9679],[-95.1335,38.9678],[-95.1318,38.9677],[-95.1301,38.9676],[-95.1284,38.9675],[-95.1267,38.9674],[-95.125,38.9673],[-95.1233,38.9672],[-95.1216,38.9671],[-95.1199,38.967],[-95.1182,38.9669],[-95.1165,38.9668],[-95.1148,38.9667],[-95.1131,38.9666],[-95.1114,38.9665],[-95.1097,38.9664],[-95.108,38.9663],[-95.1063,38.9662],[-95.1046,38.9661],[-95.1029,38.966],[-95.1012,38.9659],[-95.0995,38.9658],[-95.0978,38.9657],[-95.0961,38.9656],[-95.0944,38.9655],[-95.0927,38.9654],[-95.091,38.9653],[-95.0893,38.9652],[-95.0876,38.9651],[-95.0859,38.965],[-95.0842,38.9649],[-95.0825,38.9648],[-95.0808,38.9647],[-95.0791,38.9646],[-95.0774,38.9645],[-95.0757,38.9644],[-95.074,38.9643],[-95.0723,38.9642],[-95.0706,38.9641],[-95.0689,38.964],[-95.0672,38.9639],[-95.0655,38.9638],[-95.0638,38.9637],[-95.0621,38.9636],[-95.0604,38.9635],[-95.0587,38.9634],[-95.057,38.9633],[-95.0553,38.9632],[-95.0536,38.9631],[-95.0519,38.963],[-95.0502,38.9629],[-95.0485,38.9628],[-95.0468,38.9627],[-95.0451,38.9626],[-95.0434,38.9625],[-95.0417,38.9624],[-95.04,38.9623],[-95.0383,38.9622],[-95.0366,38.9621],[-95.0349,38.962],[-95.0332,38.9619],[-95.0315,38.9618],[-95.0298,38.9617],[-95.0281,38.9616],[-95.0264,38.9615],[-95.0247,38.9614],[-95.023,38.9613],[-95.0213,38.9612],[-95.22206,38.973255]]}},{"type":"Feature","properties":{"id":"strava-641962666","adventureIds":["rock-parkway-half-2016"],"category":"road","stravaActivityId":"641962666","source":"Strava GPX export"},"geometry":{"type":"LineString","coordinates":[[-94.60004,38.95995],[-94.5996,38.9583],[-94.5992,38.9566],[-94.5988,38.9549],[-94.5984,38.9532],[-94.598,38.9515],[-94.5976,38.9498],[-94.5972,38.9481],[-94.5968,38.9464],[-94.5964,38.9447],[-94.596,38.943],[-94.5956,38.9413],[-94.5952,38.9396],[-94.5948,38.9379],[-94.5944,38.9362],[-94.594,38.9345],[-94.5936,38.9328],[-94.5932,38.9311],[-94.5928,38.9294],[-94.5924,38.9277],[-94.592,38.926],[-94.5916,38.9243],[-94.5912,38.9226],[-94.5908,38.9209],[-94.5904,38.9192],[-94.59,38.9175],[-94.5896,38.9158],[-94.5892,38.9141],[-94.5888,38.9124],[-94.5884,38.9107],[-94.588,38.909],[-94.5876,38.9073],[-94.5872,38.9056],[-94.5868,38.9039],[-94.5864,38.9022],[-94.586,38.9005],[-94.5856,38.8988],[-94.5852,38.8971],[-94.5848,38.8954],[-94.5844,38.8937],[-94.584,38.892],[-94.5836,38.8903],[-94.5832,38.8886],[-94.5828,38.8869],[-94.5824,38.8852],[-94.582,38.8835],[-94.5816,38.8818],[-94.5812,38.8801],[-94.5808,38.8784],[-94.5804,38.8767],[-94.58,38.875],[-94.5796,38.8733],[-94.5792,38.8716],[-94.5788,38.8699],[-94.5784,38.8682],[-94.578,38.8665],[-94.5776,38.8648],[-94.5772,38.8631],[-94.5768,38.8614],[-94.5764,38.8597],[-94.576,38.858],[-94.5756,38.8563],[-94.5752,38.8546],[-94.5748,38.8529],[-94.5744,38.8512],[-94.574,38.8495],[-94.5736,38.8478],[-94.5732,38.8461],[-94.5728,38.8444],[-94.5724,38.8427],[-94.572,38.841],[-94.5716,38.8393],[-94.5712,38.8376],[-94.5708,38.8359],[-94.5704,38.8342],[-94.57,38.8325],[-94.5696,38.8308],[-94.5692,38.8291],[-94.5688,38.8274],[-94.5684,38.8257],[-94.568,38.824],[-94.5676,38.8223],[-94.5672,38.8206],[-94.5668,38.8189],[-94.5664,38.8172],[-94.566,38.8155],[-94.5656,38.8138],[-94.5652,38.8121],[-94.5648,38.8104],[-94.5644,38.8087],[-94.564,38.807],[-94.5636,38.8053],[-94.5632,38.8036],[-94.5628,38.8019],[-94.5624,38.8002],[-94.562,38.7985],[-94.5616,38.7968],[-94.5612,38.7951],[-94.5608,38.7934],[-94.5604,38.7917],[-94.56,38.79],[-94.5596,38.7883],[-94.5592,38.7866],[-94.5588,38.7849],[-94.5584,38.7832],[-94.558,38.7815],[-94.5576,38.7798],[-94.5572,38.7781],[-94.5568,38.7764],[-94.5564,38.7747],[-94.556,38.773],[-94.5556,38.7713],[-94.5552,38.7696],[-94.5548,38.7679],[-94.5544,38.7662],[-94.554,38.7645],[-94.5536,38.7628],[-94.5532,38.7611],[-94.60012,38.959946]]}},{"type":"Feature","properties":{"id":"strava-641962559","adventureIds":["garmin-half-2016"],"category":"road","stravaActivityId":"641962559","source":"Strava GPX export"},"geometry":{"type":"LineString","coordinates":[[-94.79544,38.93893],[-94.7948,38.9374],[-94.7942,38.9359],[-94.7936,38.9344],[-94.793,38.9329],[-94.7924,38.9314],[-94.7918,38.9299],[-94.7912,38.9284],[-94.7906,38.9269],[-94.79,38.9254],[-94.7894,38.9239],[-94.7888,38.9224],[-94.7882,38.9209],[-94.7876,38.9194],[-94.787,38.9179],[-94.7864,38.9164],[-94.7858,38.9149],[-94.7852,38.9134],[-94.7846,38.9119],[-94.784,38.9104],[-94.7834,38.9089],[-94.7828,38.9074],[-94.7822,38.9059],[-94.7816,38.9044],[-94.781,38.9029],[-94.7804,38.9014],[-94.7798,38.8999],[-94.7792,38.8984],[-94.7786,38.8969],[-94.778,38.8954],[-94.7774,38.8939],[-94.7768,38.8924],[-94.7762,38.8909],[-94.7756,38.8894],[-94.775,38.8879],[-94.7744,38.8864],[-94.7738,38.8849],[-94.7732,38.8834],[-94.7726,38.8819],[-94.772,38.8804],[-94.7714,38.8789],[-94.7708,38.8774],[-94.7702,38.8759],[-94.7696,38.8744],[-94.769,38.8729],[-94.7684,38.8714],[-94.7678,38.8699],[-94.7672,38.8684],[-94.7666,38.8669],[-94.766,38.8654],[-94.7654,38.8639],[-94.7648,38.8624],[-94.7642,38.8609],[-94.7636,38.8594],[-94.763,38.8579],[-94.7624,38.8564],[-94.7618,38.8549],[-94.7612,38.8534],[-94.7606,38.8519],[-94.76,38.8504],[-94.7594,38.8489],[-94.7588,38.8474],[-94.7582,38.8459],[-94.7576,38.8444],[-94.757,38.8429],[-94.7564,38.8414],[-94.7558,38.8399],[-94.7552,38.8384],[-94.7546,38.8369],[-94.754,38.8354],[-94.7534,38.8339],[-94.7528,38.8324],[-94.7522,38.8309],[-94.7516,38.8294],[-94.751,38.8279],[-94.7504,38.8264],[-94.7498,38.8249],[-94.7492,38.8234],[-94.7486,38.8219],[-94.748,38.8204],[-94.7474,38.8189],[-94.7468,38.8174],[-94.7462,38.8159],[-94.7456,38.8144],[-94.745,38.8129],[-94.7444,38.8114],[-94.7438,38.8099],[-94.7432,38.8084],[-94.7426,38.8069],[-94.742,38.8054],[-94.7414,38.8039],[-94.7408,38.8024],[-94.7402,38.8009],[-94.7396,38.7994],[-94.739,38.7979],[-94.7384,38.7964],[-94.7378,38.7949],[-94.7372,38.7934],[-94.7366,38.7919],[-94.736,38.7904],[-94.7354,38.7889],[-94.7348,38.7874],[-94.7342,38.7859],[-94.7336,38.7844],[-94.733,38.7829],[-94.7324,38.7814],[-94.7318,38.7799],[-94.7312,38.7784],[-94.7306,38.7769],[-94.73,38.7754],[-94.7294,38.7739],[-94.7288,38.7724],[-94.7282,38.7709],[-94.7276,38.7694],[-94.727,38.7679],[-94.7264,38.7664],[-94.7258,38.7649],[-94.7252,38.7634],[-94.7246,38.7619],[-94.79606,38.93915]]}},{"type":"Feature","properties":{"id":"strava-641962419","adventureIds":["illinois-5k-2016"],"category":"road","stravaActivityId":"641962419","source":"Strava GPX export"},"geometry":{"type":"LineString","coordinates":[[-88.240814,40.092422],[-88.24055,40.0928],[-88.2403,40.0932],[-88.24005,40.0936],[-88.2398,40.094],[-88.23955,40.0944],[-88.2393,40.0948],[-88.23905,40.0952],[-88.2388,40.0956],[-88.23855,40.096],[-88.2383,40.0964],[-88.23805,40.0968],[-88.2378,40.0972],[-88.23755,40.0976],[-88.2373,40.098],[-88.23705,40.0984],[-88.2368,40.0988],[-88.23655,40.0992],[-88.2363,40.0996],[-88.23605,40.1],[-88.2358,40.1004],[-88.23555,40.1008],[-88.2353,40.1012],[-88.23505,40.1016],[-88.2348,40.102],[-88.23455,40.1024],[-88.2343,40.1028],[-88.23405,40.1032],[-88.2338,40.1036],[-88.23355,40.104],[-88.2333,40.1044],[-88.23305,40.1048],[-88.2328,40.1052],[-88.23255,40.1056],[-88.2323,40.106],[-88.23205,40.1064],[-88.2318,40.1068],[-88.23155,40.1072],[-88.2313,40.1076],[-88.23105,40.108],[-88.2308,40.1084],[-88.23055,40.1088],[-88.2303,40.1092],[-88.23005,40.1096],[-88.2298,40.11],[-88.22955,40.1104],[-88.2293,40.1108],[-88.22905,40.1112],[-88.2288,40.1116],[-88.22855,40.112],[-88.2283,40.1124],[-88.22805,40.1128],[-88.2278,40.1132],[-88.22755,40.1136],[-88.2273,40.114],[-88.22705,40.1144],[-88.2268,40.1148],[-88.22655,40.1152],[-88.2263,40.1156],[-88.22605,40.116],[-88.2258,40.1164],[-88.22555,40.1168],[-88.2253,40.1172],[-88.22505,40.1176],[-88.2248,40.118],[-88.22455,40.1184],[-88.2243,40.1188],[-88.22405,40.1192],[-88.2238,40.1196],[-88.22355,40.12],[-88.2233,40.1204],[-88.22305,40.1208],[-88.2228,40.1212],[-88.22255,40.1216],[-88.2223,40.122],[-88.22205,40.1224],[-88.2218,40.1228],[-88.22155,40.1232],[-88.2213,40.1236],[-88.22105,40.124],[-88.2208,40.1244],[-88.22055,40.1248],[-88.2203,40.1252],[-88.22005,40.1256],[-88.2198,40.126],[-88.21955,40.1264],[-88.2193,40.1268],[-88.21905,40.1272],[-88.2188,40.1276],[-88.21855,40.128],[-88.2183,40.1284],[-88.21805,40.1288],[-88.2178,40.1292],[-88.21755,40.1296],[-88.2173,40.13],[-88.21705,40.1304],[-88.2168,40.1308],[-88.21655,40.1312],[-88.2163,40.1316],[-88.21605,40.132],[-88.2158,40.1324],[-88.21555,40.1328],[-88.2153,40.1332],[-88.21505,40.1336],[-88.2148,40.134],[-88.21455,40.1344],[-88.2143,40.1348],[-88.21405,40.1352],[-88.2138,40.1356],[-88.21355,40.136],[-88.2133,40.1364],[-88.21305,40.1368],[-88.2128,40.1372],[-88.21255,40.1376],[-88.2123,40.138],[-88.21205,40.1384],[-88.2118,40.1388],[-88.21155,40.1392],[-88.23599,40.099293]]}},{"type":"Feature","properties":{"id":"strava-641962439","adventureIds":["illinois-half-2016"],"category":"road","stravaActivityId":"641962439","source":"Strava GPX export"},"geometry":{"type":"LineString","coordinates":[[-88.23857,40.094414],[-88.2382,40.093],[-88.2378,40.0916],[-88.2374,40.0902],[-88.237,40.0888],[-88.2366,40.0874],[-88.2362,40.086],[-88.2358,40.0846],[-88.2354,40.0832],[-88.235,40.0818],[-88.2346,40.0804],[-88.2342,40.079],[-88.2338,40.0776],[-88.2334,40.0762],[-88.233,40.0748],[-88.2326,40.0734],[-88.2322,40.072],[-88.2318,40.0706],[-88.2314,40.0692],[-88.231,40.0678],[-88.2306,40.0664],[-88.2302,40.065],[-88.2298,40.0636],[-88.2294,40.0622],[-88.229,40.0608],[-88.2286,40.0594],[-88.2282,40.058],[-88.2278,40.0566],[-88.2274,40.0552],[-88.227,40.0538],[-88.2266,40.0524],[-88.2262,40.051],[-88.2258,40.0496],[-88.2254,40.0482],[-88.225,40.0468],[-88.2246,40.0454],[-88.2242,40.044],[-88.2238,40.0426],[-88.2234,40.0412],[-88.223,40.0398],[-88.2226,40.0384],[-88.2222,40.037],[-88.2218,40.0356],[-88.2214,40.0342],[-88.221,40.0328],[-88.2206,40.0314],[-88.2202,40.03],[-88.2198,40.0286],[-88.2194,40.0272],[-88.219,40.0258],[-88.2186,40.0244],[-88.2182,40.023],[-88.2178,40.0216],[-88.2174,40.0202],[-88.217,40.0188],[-88.2166,40.0174],[-88.2162,40.016],[-88.2158,40.0146],[-88.2154,40.0132],[-88.215,40.0118],[-88.2146,40.0104],[-88.2142,40.009],[-88.2138,40.0076],[-88.2134,40.0062],[-88.213,40.0048],[-88.2126,40.0034],[-88.2122,40.002],[-88.2118,40.0006],[-88.2114,39.9992],[-88.211,39.9978],[-88.2106,39.9964],[-88.2102,39.995],[-88.2098,39.9936],[-88.2094,39.9922],[-88.209,39.9908],[-88.2086,39.9894],[-88.2082,39.988],[-88.2078,39.9866],[-88.2074,39.9852],[-88.207,39.9838],[-88.2066,39.9824],[-88.2062,39.981],[-88.2058,39.9796],[-88.2054,39.9782],[-88.205,39.9768],[-88.2046,39.9754],[-88.2042,39.974],[-88.2038,39.9726],[-88.2034,39.9712],[-88.203,39.9698],[-88.2026,39.9684],[-88.2022,39.967],[-88.2018,39.9656],[-88.2014,39.9642],[-88.201,39.9628],[-88.2006,39.9614],[-88.2002,39.96],[-88.1998,39.9586],[-88.1994,39.9572],[-88.199,39.9558],[-88.1986,39.9544],[-88.1982,39.953],[-88.1978,39.9516],[-88.1974,39.9502],[-88.197,39.9488],[-88.1966,39.9474],[-88.1962,39.946],[-88.1958,39.9446],[-88.1954,39.9432],[-88.195,39.9418],[-88.1946,39.9404],[-88.1942,39.939],[-88.1938,39.9376],[-88.1934,39.9362],[-88.193,39.9348],[-88.1926,39.9334],[-88.1922,39.932],[-88.1918,39.9306],[-88.23621,40.098663]]}},{"type":"Feature","properties":{"id":"strava-641962333","adventureIds":["running-with-cows-half-2016"],"category":"road","stravaActivityId":"641962333","source":"Strava GPX export"},"geometry":{"type":"LineString","coordinates":[[-94.66625,38.715942],[-94.6655,38.715],[-94.6647,38.7141],[-94.6639,38.7132],[-94.6631,38.7123],[-94.6623,38.7114],[-94.6615,38.7105],[-94.6607,38.7096],[-94.6599,38.7087],[-94.6591,38.7078],[-94.6583,38.7069],[-94.6575,38.706],[-94.6567,38.7051],[-94.6559,38.7042],[-94.6551,38.7033],[-94.6543,38.7024],[-94.6535,38.7015],[-94.6527,38.7006],[-94.6519,38.6997],[-94.6511,38.6988],[-94.6503,38.6979],[-94.6495,38.697],[-94.6487,38.6961],[-94.6479,38.6952],[-94.6471,38.6943],[-94.6463,38.6934],[-94.6455,38.6925],[-94.6447,38.6916],[-94.6439,38.6907],[-94.6431,38.6898],[-94.6423,38.6889],[-94.6415,38.688],[-94.6407,38.6871],[-94.6399,38.6862],[-94.6391,38.6853],[-94.6383,38.6844],[-94.6375,38.6835],[-94.6367,38.6826],[-94.6359,38.6817],[-94.6351,38.6808],[-94.6343,38.6799],[-94.6335,38.679],[-94.6327,38.6781],[-94.6319,38.6772],[-94.6311,38.6763],[-94.6303,38.6754],[-94.6295,38.6745],[-94.6287,38.6736],[-94.6279,38.6727],[-94.6271,38.6718],[-94.6263,38.6709],[-94.6255,38.67],[-94.6247,38.6691],[-94.6239,38.6682],[-94.6231,38.6673],[-94.6223,38.6664],[-94.6215,38.6655],[-94.6207,38.6646],[-94.6199,38.6637],[-94.6191,38.6628],[-94.6183,38.6619],[-94.6175,38.661],[-94.6167,38.6601],[-94.6159,38.6592],[-94.6151,38.6583],[-94.6143,38.6574],[-94.6135,38.6565],[-94.6127,38.6556],[-94.6119,38.6547],[-94.6111,38.6538],[-94.6103,38.6529],[-94.6095,38.652],[-94.6087,38.6511],[-94.6079,38.6502],[-94.6071,38.6493],[-94.6063,38.6484],[-94.6055,38.6475],[-94.6047,38.6466],[-94.6039,38.6457],[-94.6031,38.6448],[-94.6023,38.6439],[-94.6015,38.643],[-94.6007,38.6421],[-94.5999,38.6412],[-94.5991,38.6403],[-94.5983,38.6394],[-94.5975,38.6385],[-94.5967,38.6376],[-94.5959,38.6367],[-94.5951,38.6358],[-94.5943,38.6349],[-94.5935,38.634],[-94.5927,38.6331],[-94.5919,38.6322],[-94.5911,38.6313],[-94.5903,38.6304],[-94.5895,38.6295],[-94.5887,38.6286],[-94.5879,38.6277],[-94.5871,38.6268],[-94.5863,38.6259],[-94.5855,38.625],[-94.5847,38.6241],[-94.5839,38.6232],[-94.5831,38.6223],[-94.5823,38.6214],[-94.5815,38.6205],[-94.5807,38.6196],[-94.5799,38.6187],[-94.5791,38.6178],[-94.5783,38.6169],[-94.5775,38.616],[-94.5767,38.6151],[-94.5759,38.6142],[-94.5751,38.6133],[-94.5743,38.6124],[-94.5735,38.6115],[-94.5727,38.6106],[-94.5719,38.6097],[-94.6662,38.715897]]}}]}