{"type":"FeatureCollection","features":[{"type":"Feature","properties":{"id":"strava-641968887","adventureIds":["garmin-half-2014"],"category":"road","stravaActivityId":"641968887","source":"Strava GPX export"},"geometry":{"type":"LineString","coordinates":[[-94.79721,38.855957],[-94.79733,38.86202],[-94.79728,38.868534],[-94.79719,38.872803],[-94.797356,38.87929],[-94.80418,38.880543],[-94.81257,38.88052],[-94.82056,38.880836],[-94.8206,38.887596],[-94.81907,38.893864],[-94.81548,38.89813],[-94.80665,38.89188],[-94.801285,38.890522],[-94.794334,38.89404],[-94.788506,38.89826],[-94.779915,38.89819],[-94.771095,38.898144],[-94.76981,38.89327],[-94.76748,38.889423],[-94.77411,38.886135],[-94.77632,38.88009],[-94.78389,38.87758],[-94.78732,38.871655],[-94.79435,38.868618],[-94.78931,38.867523],[-94.786934,38.863354],[-94.7887,38.857475],[-94.79149,38.857475],[-94.798195,38.856453]]}},{"type":"Feature","properties":{"id":"strava-641968068","adventureIds":["abes-amble-2014"],"category":"road","stravaActivityId":"641968068","source":"Strava GPX export"},"geometry":{"type":"LineString","coordinates":[[-89.642715,39.837273],[-89.64056,39.834927],[-89.639,39.832916],[-89.64155,39.830982],[-89.645615,39.830917],[-89.64936,39.830853],[-89.65275,39.82992],[-89.654274,39.827515],[-89.65376,39.824356],[-89.651924,39.821953],[-89.652016,39.818974],[-89.65424,39.82031],[-89.656944,39.822235],[-89.66007,39.82097],[-89.66235,39.81941],[-89.65919,39.82019],[-89.65694,39.821564],[-89.65417,39.81976],[-89.65184,39.819572],[-89.652016,39.822784],[-89.65397,39.825256],[-89.65411,39.828224],[-89.65171,39.825863],[-89.65006,39.828087],[-89.64978,39.830864],[-89.64605,39.830902],[-89.64193,39.830933],[-89.639046,39.832645],[-89.640465,39.834812],[-89.64271,39.837513]]}},{"type":"Feature","properties":{"id":"strava-641966412","adventureIds":["pi-day-half-2015"],"category":"road","stravaActivityId":"641966412","source":"Strava GPX export"},"geometry":{"type":"LineString","coordinates":[[-95.2185,38.972813],[-95.211365,38.970886],[-95.20383,38.96907],[-95.19648,38.9668],[-95.18893,38.965115],[-95.18202,38.965363],[-95.186646,38.96514],[-95.19396,38.966427],[-95.20023,38.967983],[-95.20587,38.969627],[-95.21346,38.971565],[-95.21193,38.9712],[-95.20436,38.96957],[-95.19929,38.967915],[-95.192215,38.96602],[-95.18473,38.96549],[-95.18384,38.96541],[-95.19136,38.96561],[-95.19887,38.96759],[-95.20641,38.969536],[-95.21399,38.97178],[-95.211174,38.9709],[-95.203835,38.96901],[-95.196434,38.96676],[-95.18857,38.96507],[-95.194115,38.966465],[-95.20054,38.96792],[-95.20626,38.969707],[-95.21381,38.97182],[-95.22206,38.973255]]}},{"type":"Feature","properties":{"id":"strava-641962666","adventureIds":["rock-parkway-half-2016"],"category":"road","stravaActivityId":"641962666","source":"Strava GPX export"},"geometry":{"type":"LineString","coordinates":[[-94.60004,38.95995],[-94.59781,38.959736],[-94.60418,38.96384],[-94.60475,38.96983],[-94.60655,38.975613],[-94.60639,38.982285],[-94.60373,38.987656],[-94.603386,38.99389],[-94.6031,38.99982],[-94.60241,39.00644],[-94.60174,39.012894],[-94.60169,39.01969],[-94.60008,39.023468],[-94.59861,39.01751],[-94.59528,39.021595],[-94.59467,39.027958],[-94.592255,39.03297],[-94.596634,39.03376],[-94.5971,39.0276],[-94.602905,39.025608],[-94.60213,39.01936],[-94.60272,39.01277],[-94.60299,39.00602],[-94.60336,38.999523],[-94.60379,38.993546],[-94.60457,38.986614],[-94.606575,38.98075],[-94.60663,38.97404],[-94.605225,38.96645],[-94.60012,38.959946]]}},{"type":"Feature","properties":{"id":"strava-641962559","adventureIds":["garmin-half-2016"],"category":"road","stravaActivityId":"641962559","source":"Strava GPX export"},"geometry":{"type":"LineString","coordinates":[[-94.79544,38.93893],[-94.7974,38.934353],[-94.79746,38.928154],[-94.797356,38.922],[-94.79732,38.91572],[-94.79734,38.909428],[-94.79738,38.903267],[-94.79729,38.896854],[-94.79959,38.891453],[-94.80639,38.88775],[-94.81366,38.885025],[-94.81618,38.889545],[-94.81617,38.89639],[-94.816956,38.901463],[-94.819115,38.895695],[-94.82082,38.888912],[-94.82548,38.886955],[-94.82557,38.89339],[-94.82534,38.90033],[-94.825386,38.90729],[-94.82744,38.912663],[-94.83459,38.91402],[-94.83448,38.920753],[-94.83377,38.92722],[-94.82528,38.92735],[-94.816505,38.92742],[-94.807434,38.9274],[-94.79918,38.927284],[-94.79742,38.93275],[-94.79606,38.93915]]}},{"type":"Feature","properties":{"id":"strava-641962419","adventureIds":["illinois-5k-2016"],"category":"road","stravaActivityId":"641962419","source":"Strava GPX export"},"geometry":{"type":"LineString","coordinates":[[-88.240814,40.092422],[-88.24143,40.093884],[-88.24151,40.095806],[-88.2415,40.097347],[-88.24148,40.098785],[-88.24149,40.100605],[-88.241585,40.102077],[-88.24155,40.103516],[-88.23972,40.10418],[-88.23869,40.10477],[-88.23875,40.106197],[-88.238716,40.107994],[-88.23883,40.109344],[-88.23774,40.110294],[-88.23542,40.1103],[-88.23359,40.110382],[-88.231346,40.11029],[-88.23037,40.10958],[-88.230286,40.10825],[-88.23025,40.10659],[-88.23024,40.10519],[-88.23078,40.104073],[-88.233055,40.10403],[-88.23482,40.104057],[-88.23665,40.10403],[-88.23865,40.10381],[-88.238525,40.102398],[-88.23852,40.100975],[-88.2371,40.100254],[-88.23599,40.099293]]}},{"type":"Feature","properties":{"id":"strava-641962439","adventureIds":["illinois-half-2016"],"category":"road","stravaActivityId":"641962439","source":"Strava GPX export"},"geometry":{"type":"LineString","coordinates":[[-88.23857,40.094414],[-88.23859,40.101265],[-88.23868,40.108044],[-88.23281,40.110275],[-88.223976,40.110424],[-88.21524,40.110603],[-88.20859,40.1124],[-88.200264,40.112896],[-88.19573,40.10955],[-88.19165,40.105667],[-88.18291,40.10565],[-88.181274,40.1001],[-88.17777,40.097958],[-88.18074,40.09268],[-88.18226,40.087757],[-88.18983,40.087406],[-88.19867,40.08787],[-88.2017,40.084885],[-88.200356,40.079655],[-88.205124,40.077324],[-88.208115,40.0802],[-88.20622,40.083782],[-88.20946,40.08772],[-88.20958,40.094128],[-88.209816,40.100777],[-88.21825,40.100742],[-88.22697,40.10062],[-88.23132,40.10401],[-88.2355,40.10141],[-88.23621,40.098663]]}},{"type":"Feature","properties":{"id":"strava-641962333","adventureIds":["running-with-cows-half-2016"],"category":"road","stravaActivityId":"641962333","source":"Strava GPX export"},"geometry":{"type":"LineString","coordinates":[[-94.66625,38.715942],[-94.66767,38.72143],[-94.667564,38.72831],[-94.667625,38.735073],[-94.663055,38.73814],[-94.654755,38.738144],[-94.64637,38.73818],[-94.63811,38.738148],[-94.63055,38.73905],[-94.63058,38.745693],[-94.63052,38.752716],[-94.63056,38.759647],[-94.630554,38.766445],[-94.6306,38.773163],[-94.630646,38.77958],[-94.63065,38.778294],[-94.63063,38.771774],[-94.63061,38.76546],[-94.630615,38.759235],[-94.63058,38.752895],[-94.638725,38.75269],[-94.64719,38.752705],[-94.655464,38.752666],[-94.66375,38.752647],[-94.6676,38.747845],[-94.66757,38.74142],[-94.66759,38.735004],[-94.66758,38.728584],[-94.66758,38.72175],[-94.6662,38.715897]]}},{"type":"Feature","properties":{"id":"river-to-river-relay-historical-course","adventureIds":["river-to-river-relay-2006","river-to-river-relay-2008","river-to-river-relay-2010"],"category":"relay","source":"Historical River to River Relay course; official 24-section course description cross-checked with FKT traditional-course GPS listing","sourceUrl":"https://www.r2rrelay.com/course/course.html","gpsReferenceUrl":"https://fastestknowntime.com/route/river-river-relay-course-il","distanceMi":80.0,"routeType":"historical-course-overview","note":"Shared historical full relay course, not the user's individual-leg GPS recording."},"geometry":{"type":"LineString","coordinates":[[-89.425,37.581],[-89.392,37.573],[-89.318,37.566],[-89.253,37.531],[-89.166,37.535],[-89.08,37.548],[-88.972,37.555],[-88.89,37.548],[-88.82,37.526],[-88.745,37.501],[-88.665,37.49],[-88.59,37.5],[-88.54,37.455],[-88.486,37.363]]}},{"type":"Feature","properties":{"id":"snowman-shuffle-jalc-course-proxy","adventureIds":["snowman-shuffle-2006","snowman-shuffle-2007","snowman-shuffle-2008","snowman-shuffle-2009","snowman-shuffle-series"],"category":"road","source":"User-authorized modern-course proxy based on the current Snowman Shuffle venue at John A. Logan College and the oldest digitized-course reference found in the 2020 Summer Sickness challenge","sourceUrl":"https://runsignup.com/Race/TheSummerSickness/Page-2","modernEventUrl":"https://runsignup.com/Race/Info/IL/Carterville/JALCSnowmanShuffle","campusMapUrl":"https://www.jalc.edu/wp-content/uploads/2020/01/campus_map.pdf","distanceKm":5.03,"routeType":"historical-course-proxy","provenance":"historical-course","note":"Shared representative JALC Snowman Shuffle course used for the 2006–2009 records at the user's instruction. The geometry follows the modern campus-road footprint and is intentionally labeled as a proxy; it is not personal GPS and is not proof that every historical edition used identical turns."},"geometry":{"type":"LineString","coordinates":[[-89.0924,37.7457],[-89.0956,37.74545],[-89.0959,37.7502],[-89.0912,37.75015],[-89.0888,37.749],[-89.0868,37.74735],[-89.0872,37.7458],[-89.0897,37.7449],[-89.0924,37.7457],[-89.0956,37.74545],[-89.0959,37.7502],[-89.0912,37.75015],[-89.0888,37.749],[-89.0868,37.74735],[-89.0872,37.7458],[-89.0897,37.7449],[-89.0924,37.7457],[-89.09375,37.7457],[-89.0924,37.7457]]}},{"type":"Feature","properties":{"id":"brew-to-brew-historical-course","adventureIds":["brew-to-brew-relay-2013"],"category":"relay","source":"Historical Brew to Brew course overview reconstructed from the preserved participant-guide station sequence and relay-leg descriptions, anchored by published venue/town locations and Alex's surviving Leg 3 GPS","sourceUrl":"https://abcdocz.com/doc/965987/your-2015-participant-guide-","eventReferenceUrl":"https://trailrunner.com/event/brew-to-brew-42-5-miler/","distanceMi":44.4,"routeType":"historical-course-overview","provenance":"historical-course","note":"Shared historical overview of the full Boulevard Brewery-to-Lawrence Brew to Brew route. It follows the documented Kansas River/K-32 corridor and exchange sequence, but is intentionally an overview rather than a claim of exact turn-by-turn 2013 geometry. Alex's personal Leg 3 FIT track is published separately."},"geometry":{"type":"LineString","coordinates":[[-94.59683,39.082],[-94.62,39.0845],[-94.65,39.0865],[-94.675,39.0878],[-94.722098,39.087725],[-94.739467,39.085339],[-94.752964,39.076341],[-94.767433,39.068885],[-94.820038,39.06196],[-94.85,39.0615],[-94.872742,39.060282],[-94.88376,39.05971],[-94.93,39.048],[-94.98,39.025],[-95.03914,39.00139],[-95.09,38.995],[-95.14,38.989],[-95.185,38.982],[-95.22,38.976],[-95.23567,38.97339],[-95.2359,38.9719]]}},{"type":"Feature","properties":{"id":"air-force-marathon-2026-official-course","adventureIds":["air-force-marathon-2026"],"category":"marathon","source":"2026 Air Force Marathon official vector course map and official turn-by-turn directions; georeferenced to public road intersections","sourceUrl":"https://www.usafmarathon.com/wp-content/uploads/2026/06/Full-Marathon-Course-Map.pdf","turnByTurnUrl":"https://www.usafmarathon.com/wp-content/uploads/2026/06/Full-Marathon.png","distanceMi":26.2,"routeType":"official-course-map-reconstruction","provenance":"historical-course","note":"Organizer-published 2026 full-marathon course reconstructed from the PDF's native vector path, official turn-by-turn directions, and public street intersections. This is a complete official-course representation, not Alex's personal GPS recording; his watch stopped during the race."},"geometry":{"type":"LineString","coordinates":[[-84.10895,39.78345],[-84.1089055,39.7834606],[-84.1087727,39.7834949],[-84.1085523,39.7835567],[-84.108245,39.7836496],[-84.1078516,39.7837775],[-84.107373,39.7839441],[-84.1068098,39.7841531],[-84.1061629,39.7844083],[-84.105433,39.7847134],[-84.1046209,39.7850722],[-84.1037274,39.7854884],[-84.1027533,39.7859657],[-84.1025557,39.7860889],[-84.1023476,39.7862147],[-84.102134,39.7863405],[-84.1019205,39.7864639],[-84.1017122,39.7865824],[-84.1015145,39.7866932],[-84.1013327,39.786794],[-84.101172,39.7868822],[-84.1010378,39.7869552],[-84.1009354,39.7870105],[-84.1008701,39.7870455],[-84.1008471,39.7870578],[-84.0981898,39.7898807],[-84.0908026,39.789973],[-84.0907978,39.7899861],[-84.0907851,39.7900269],[-84.0907673,39.7900975],[-84.0907471,39.7902],[-84.0907271,39.7903365],[-84.0907102,39.7905091],[-84.0906989,39.7907199],[-84.090696,39.7909711],[-84.0907042,39.7912647],[-84.0907262,39.7916029],[-84.0907647,39.7919878],[-84.0908225,39.7924214],[-84.0903847,39.7923532],[-84.0899624,39.7922643],[-84.0895599,39.7921598],[-84.0891815,39.7920448],[-84.0888316,39.7919243],[-84.0885143,39.7918035],[-84.088234,39.7916874],[-84.0879951,39.791581],[-84.0878017,39.7914894],[-84.0876583,39.7914177],[-84.0875691,39.791371],[-84.0875384,39.7913543],[-84.0874845,39.7914185],[-84.0873346,39.7915975],[-84.087106,39.7918713],[-84.0868163,39.7922197],[-84.0864829,39.7926226],[-84.0861232,39.7930598],[-84.0857547,39.7935113],[-84.0853949,39.793957],[-84.0850611,39.7943765],[-84.084771,39.79475],[-84.0845419,39.7950571],[-84.0843913,39.7952779],[-84.0843068,39.7953033],[-84.0842236,39.79533],[-84.0841362,39.7953603],[-84.0840389,39.7953968],[-84.0839263,39.7954417],[-84.0837928,39.7954974],[-84.0836328,39.7955665],[-84.0834407,39.7956514],[-84.0832111,39.7957543],[-84.0829382,39.7958778],[-84.0826167,39.7960242],[-84.0822408,39.796196],[-84.0820964,39.7962608],[-84.0819726,39.7963137],[-84.0818682,39.796356],[-84.0817813,39.7963888],[-84.0817106,39.7964133],[-84.0816543,39.7964307],[-84.081611,39.7964422],[-84.0815791,39.7964489],[-84.0815571,39.7964521],[-84.0815432,39.7964529],[-84.0815361,39.7964525],[-84.081534,39.7964522],[-84.0808486,39.7968635],[-84.0808311,39.7968536],[-84.0807821,39.7968262],[-84.0807071,39.7967849],[-84.0806117,39.7967332],[-84.0805013,39.7966745],[-84.0803813,39.7966125],[-84.0802572,39.7965506],[-84.0801345,39.7964923],[-84.0800187,39.7964412],[-84.0799152,39.7964008],[-84.0798295,39.7963746],[-84.0797671,39.796366],[-84.0805034,39.7957175],[-84.0813684,39.7949809],[-84.0813668,39.7949809],[-84.0813622,39.7949808],[-84.0813551,39.7949807],[-84.0813462,39.7949805],[-84.0813358,39.7949801],[-84.0813246,39.7949797],[-84.081313,39.7949791],[-84.0813016,39.7949782],[-84.0812908,39.7949772],[-84.0812813,39.7949759],[-84.0812734,39.7949744],[-84.0812678,39.7949725],[-84.081263,39.7949696],[-84.0812585,39.7949654],[-84.0812541,39.79496],[-84.0812499,39.7949539],[-84.0812461,39.7949474],[-84.0812426,39.7949407],[-84.0812395,39.7949342],[-84.0812368,39.7949282],[-84.0812347,39.794923],[-84.0812331,39.7949189],[-84.0812321,39.7949162],[-84.0812318,39.7949153],[-84.081215,39.7949212],[-84.0811682,39.7949377],[-84.0810972,39.7949629],[-84.0810076,39.7949947],[-84.0809049,39.7950313],[-84.0807948,39.7950707],[-84.080683,39.7951109],[-84.0805751,39.79515],[-84.0804766,39.7951861],[-84.0803933,39.7952172],[-84.0803307,39.7952413],[-84.0802946,39.7952565],[-84.0802692,39.7952696],[-84.0802163,39.7952981],[-84.0801383,39.7953405],[-84.0800381,39.7953956],[-84.0799181,39.795462],[-84.0797812,39.7955383],[-84.0796299,39.7956234],[-84.0794669,39.7957157],[-84.0792949,39.7958139],[-84.0791164,39.7959169],[-84.0789342,39.7960231],[-84.078751,39.7961313],[-84.0785729,39.7962379],[-84.0783987,39.7963435],[-84.0782304,39.7964466],[-84.0780703,39.7965456],[-84.0779207,39.7966389],[-84.0777838,39.7967249],[-84.0776619,39.7968021],[-84.0775571,39.7968688],[-84.0774716,39.7969234],[-84.0774079,39.7969644],[-84.077368,39.7969901],[-84.0773542,39.7969991],[-84.07302,39.7994964],[-84.0669697,39.8056523],[-84.060103,39.808574],[-84.0599361,39.8085225],[-84.0597693,39.8084709],[-84.0596025,39.8084194],[-84.0594357,39.8083679],[-84.0592689,39.8083164],[-84.059102,39.8082649],[-84.0589352,39.8082134],[-84.0587684,39.8081619],[-84.0586016,39.8081104],[-84.0584347,39.8080589],[-84.0582679,39.8080074],[-84.058101,39.8079559],[-84.0583315,39.8078772],[-84.0585621,39.8077984],[-84.0587926,39.8077197],[-84.0590231,39.8076409],[-84.0592535,39.8075622],[-84.059484,39.8074835],[-84.0597145,39.8074048],[-84.059945,39.8073261],[-84.0601755,39.8072474],[-84.0604059,39.8071687],[-84.0606365,39.80709],[-84.060867,39.8070113],[-84.0623622,39.8064983],[-84.0638574,39.8059853],[-84.0653526,39.8054724],[-84.0668479,39.8049594],[-84.0683431,39.8044465],[-84.0698384,39.8039335],[-84.0713337,39.8034206],[-84.072829,39.8029076],[-84.0743243,39.8023946],[-84.0758196,39.8018817],[-84.0773149,39.8013687],[-84.0788102,39.8008557],[-84.0792834,39.8008548],[-84.0797565,39.8008539],[-84.0802296,39.800853],[-84.0807028,39.8008521],[-84.0811759,39.8008512],[-84.0816491,39.8008504],[-84.0821222,39.8008495],[-84.0825954,39.8008486],[-84.0830685,39.8008477],[-84.0835417,39.8008468],[-84.0840148,39.8008459],[-84.084488,39.800845],[-84.0842439,39.8010922],[-84.0839998,39.8013394],[-84.0837557,39.8015867],[-84.0835116,39.8018339],[-84.0832675,39.8020812],[-84.0830234,39.8023285],[-84.0827793,39.8025758],[-84.0825352,39.8028231],[-84.0822911,39.8030704],[-84.0820471,39.8033177],[-84.081803,39.8035649],[-84.0815589,39.8038121],[-84.0812678,39.8044537],[-84.0809766,39.8050953],[-84.0806855,39.8057368],[-84.0803943,39.8063784],[-84.0801032,39.80702],[-84.079812,39.8076616],[-84.0795209,39.8083032],[-84.0792297,39.8089447],[-84.0789386,39.8095863],[-84.0786474,39.8102279],[-84.0783563,39.8108695],[-84.0780652,39.8115111],[-84.078002,39.8115955],[-84.0778247,39.8118322],[-84.0775516,39.812197],[-84.0772008,39.8126653],[-84.0767906,39.8132127],[-84.0763394,39.8138147],[-84.0758653,39.814447],[-84.0753866,39.815085],[-84.0749216,39.8157044],[-84.0744886,39.8162807],[-84.0741057,39.8167895],[-84.0737913,39.8172062],[-84.0737261,39.8172662],[-84.0736478,39.8173417],[-84.0735595,39.8174299],[-84.073464,39.817528],[-84.0733642,39.8176333],[-84.073263,39.8177429],[-84.0731633,39.8178542],[-84.0730679,39.8179642],[-84.0729797,39.8180702],[-84.0729016,39.8181695],[-84.0728365,39.8182592],[-84.0727873,39.8183365],[-84.0727251,39.818428],[-84.0726207,39.8185602],[-84.0724793,39.8187259],[-84.0723059,39.8189182],[-84.0721054,39.81913],[-84.071883,39.8193544],[-84.0716436,39.8195843],[-84.0713922,39.8198128],[-84.0711338,39.8200329],[-84.0708736,39.8202374],[-84.0706164,39.8204195],[-84.0703673,39.8205721],[-84.0700905,39.8208758],[-84.0697284,39.8212788],[-84.0693017,39.8217572],[-84.0688313,39.8222871],[-84.0683381,39.8228443],[-84.067843,39.8234051],[-84.0673668,39.8239453],[-84.0669304,39.8244411],[-84.0665546,39.8248684],[-84.0662604,39.8252033],[-84.0660686,39.8254218],[-84.066,39.8255],[-84.0659912,39.8255215],[-84.0659648,39.8255819],[-84.065921,39.825675],[-84.06586,39.8257946],[-84.0657818,39.8259344],[-84.0656867,39.8260883],[-84.0655747,39.82625],[-84.065446,39.8264132],[-84.0653007,39.8265719],[-84.065139,39.8267197],[-84.064961,39.8268505],[-84.0647669,39.8269581],[-84.0647266,39.826979],[-84.0646142,39.827038],[-84.0644427,39.8271287],[-84.0642251,39.8272452],[-84.0639742,39.8273813],[-84.0637031,39.8275309],[-84.0634246,39.8276881],[-84.0631518,39.8278466],[-84.0628976,39.8280003],[-84.0626749,39.8281433],[-84.0624966,39.8282694],[-84.0623758,39.8283724],[-84.0622837,39.8284705],[-84.0621809,39.8285872],[-84.0620709,39.8287174],[-84.0619572,39.8288564],[-84.0618431,39.8289993],[-84.0617321,39.8291412],[-84.0616278,39.8292772],[-84.0615334,39.8294026],[-84.0614525,39.8295123],[-84.0613885,39.8296016],[-84.0613449,39.8296656],[-84.0613251,39.8296994],[-84.0612804,39.8298214],[-84.0612162,39.8300078],[-84.0611371,39.8302442],[-84.0610475,39.8305165],[-84.0609518,39.8308102],[-84.0608544,39.8311112],[-84.0607599,39.831405],[-84.0606726,39.8316775],[-84.060597,39.8319143],[-84.0605375,39.8321011],[-84.0604985,39.8322237],[-84.0604845,39.8322677],[-84.0604717,39.8322811],[-84.0604356,39.8323185],[-84.0603799,39.832376],[-84.0603085,39.8324498],[-84.0602249,39.8325359],[-84.0601329,39.8326305],[-84.0600363,39.8327295],[-84.0599386,39.8328292],[-84.0598438,39.8329256],[-84.0597553,39.8330147],[-84.0596771,39.8330927],[-84.0596127,39.8331557],[-84.0594164,39.8333416],[-84.0591731,39.8335677],[-84.0588949,39.8338232],[-84.0585941,39.8340975],[-84.0582829,39.8343798],[-84.0579735,39.8346593],[-84.0576781,39.8349253],[-84.0574091,39.8351671],[-84.0571785,39.8353738],[-84.0569987,39.8355348],[-84.0568818,39.8356392],[-84.0568402,39.8356764],[-84.0568184,39.8356946],[-84.0567566,39.835746],[-84.0566596,39.8358258],[-84.0565325,39.8359292],[-84.0563804,39.8360514],[-84.0562082,39.8361876],[-84.056021,39.8363331],[-84.0558238,39.836483],[-84.0556215,39.8366325],[-84.0554193,39.8367769],[-84.0552221,39.8369113],[-84.055035,39.837031],[-84.0550748,39.8371362],[-84.0551458,39.8372644],[-84.0552445,39.8374115],[-84.0553672,39.8375737],[-84.0555102,39.8377469],[-84.0556698,39.8379271],[-84.0558424,39.8381105],[-84.0560242,39.8382928],[-84.0562117,39.8384704],[-84.0564011,39.838639],[-84.0565888,39.8387948],[-84.0567712,39.8389337],[-84.0568403,39.8389838],[-84.0569088,39.8390327],[-84.0569791,39.8390806],[-84.0570538,39.8391278],[-84.0571351,39.8391748],[-84.0572255,39.8392219],[-84.0573276,39.8392693],[-84.0574435,39.8393174],[-84.0575759,39.8393666],[-84.0577272,39.8394171],[-84.0578996,39.8394694],[-84.0580958,39.8395236],[-84.0582976,39.8395774],[-84.0584794,39.8396267],[-84.0586415,39.8396715],[-84.0587846,39.8397116],[-84.0589091,39.8397472],[-84.0590154,39.8397781],[-84.059104,39.8398043],[-84.0591755,39.8398258],[-84.0592303,39.8398426],[-84.0592688,39.8398546],[-84.0592915,39.8398618],[-84.059299,39.8398643],[-84.0607515,39.8407367],[-84.0659538,39.8437906],[-84.067,39.844],[-84.0661615,39.8443795],[-84.0607627,39.8475964],[-84.0597199,39.8480809],[-84.0591129,39.8483763],[-84.0590419,39.8484149],[-84.0590022,39.8484386],[-84.0588909,39.8485051],[-84.0587195,39.8486076],[-84.0584997,39.8487391],[-84.0582429,39.8488927],[-84.0579607,39.8490616],[-84.0576647,39.8492388],[-84.0573665,39.8494175],[-84.0570776,39.8495907],[-84.0568095,39.8497516],[-84.056574,39.8498932],[-84.0563824,39.8500087],[-84.0562855,39.8500676],[-84.0561846,39.8501297],[-84.0560799,39.8501954],[-84.0559716,39.850265],[-84.05586,39.8503389],[-84.0557451,39.8504173],[-84.0556273,39.8505005],[-84.0555066,39.8505889],[-84.0553833,39.8506827],[-84.0552577,39.8507823],[-84.0551298,39.8508879],[-84.055,39.851],[-84.0550229,39.8508512],[-84.0550345,39.8506972],[-84.0550362,39.8505404],[-84.0550288,39.8503831],[-84.0550137,39.8502276],[-84.0549918,39.8500762],[-84.0549643,39.8499313],[-84.0549322,39.8497951],[-84.0548968,39.84967],[-84.0548591,39.8495583],[-84.0548202,39.8494623],[-84.0547812,39.8493844],[-84.0547314,39.8493066],[-84.0546643,39.84922],[-84.0545785,39.8491264],[-84.0544727,39.8490276],[-84.0543456,39.8489255],[-84.0541959,39.8488217],[-84.0540222,39.8487182],[-84.0538233,39.8486167],[-84.0535978,39.8485191],[-84.0533444,39.8484271],[-84.0530618,39.8483426],[-84.0527486,39.8482673],[-84.0526394,39.8482436],[-84.0525081,39.8482143],[-84.052356,39.8481797],[-84.0521843,39.84814],[-84.0519942,39.8480953],[-84.0517869,39.8480458],[-84.0515636,39.8479917],[-84.0513255,39.8479333],[-84.0510738,39.8478706],[-84.0508097,39.8478039],[-84.0505344,39.8477334],[-84.0502492,39.8476592],[-84.0502378,39.8476552],[-84.0502279,39.8476497],[-84.050219,39.847643],[-84.0502109,39.8476355],[-84.0502034,39.8476274],[-84.0501961,39.8476191],[-84.0501889,39.8476107],[-84.0501814,39.8476026],[-84.0501733,39.8475951],[-84.0501644,39.8475884],[-84.0501545,39.847583],[-84.0501431,39.8475789],[-84.0494795,39.8474047],[-84.0488401,39.8472366],[-84.0482245,39.8470744],[-84.0476325,39.846918],[-84.0470638,39.846767],[-84.0465182,39.8466213],[-84.0459953,39.8464807],[-84.0454949,39.8463448],[-84.0450166,39.8462136],[-84.0445602,39.8460867],[-84.0441254,39.8459639],[-84.0437119,39.845845],[-84.0435997,39.8458122],[-84.0434822,39.845777],[-84.0433594,39.8457384],[-84.0432309,39.8456953],[-84.0430966,39.8456468],[-84.0429564,39.845592],[-84.0428099,39.8455297],[-84.0426571,39.8454591],[-84.0424977,39.8453791],[-84.0423316,39.8452887],[-84.0421586,39.8451871],[-84.0419784,39.8450731],[-84.0418804,39.8450087],[-84.0417428,39.8449182],[-84.0415697,39.8448045],[-84.0413652,39.8446705],[-84.0411334,39.844519],[-84.0408786,39.844353],[-84.0406049,39.8441754],[-84.0403163,39.843989],[-84.0400171,39.8437967],[-84.0397114,39.8436015],[-84.0394033,39.8434062],[-84.0390971,39.8432137],[-84.0388518,39.8430619],[-84.0386251,39.8429243],[-84.0384159,39.8427995],[-84.0382231,39.8426864],[-84.0380456,39.8425835],[-84.0378825,39.8424896],[-84.0377326,39.8424034],[-84.0375948,39.8423235],[-84.0374682,39.8422487],[-84.0373517,39.8421776],[-84.0372441,39.842109],[-84.0371445,39.8420415],[-84.0370482,39.8419751],[-84.0369489,39.8419097],[-84.0368433,39.8418457],[-84.0367284,39.8417831],[-84.0366011,39.8417222],[-84.0364581,39.8416631],[-84.0362966,39.8416059],[-84.0361132,39.8415509],[-84.035905,39.8414982],[-84.0356687,39.841448],[-84.0354014,39.8414004],[-84.0350999,39.8413556],[-84.0350822,39.8411437],[-84.0350732,39.8409293],[-84.0350714,39.8407166],[-84.0350756,39.8405095],[-84.0350844,39.8403119],[-84.0350963,39.8401277],[-84.0351101,39.839961],[-84.0351245,39.8398158],[-84.035138,39.8396959],[-84.0351493,39.8396053],[-84.0351571,39.8395481],[-84.03516,39.8395282],[-84.0362137,39.8374665],[-84.0364239,39.8370408],[-84.0366756,39.8352268],[-84.036783,39.8326492],[-84.0367835,39.8326294],[-84.0367851,39.8325722],[-84.0367875,39.8324809],[-84.0367908,39.8323589],[-84.0367949,39.8322094],[-84.0367996,39.8320357],[-84.0368049,39.8318413],[-84.0368106,39.8316293],[-84.0368168,39.8314031],[-84.0368233,39.8311661],[-84.03683,39.8309215],[-84.0368368,39.8306726],[-84.0368437,39.8304237],[-84.0368505,39.8301772],[-84.0368573,39.8299363],[-84.0368638,39.8297044],[-84.03687,39.8294848],[-84.0368758,39.8292806],[-84.0368812,39.8290952],[-84.0368859,39.8289318],[-84.0368901,39.8287937],[-84.0368935,39.8286843],[-84.0368961,39.8286067],[-84.0368977,39.8285643],[-84.0369157,39.8283064],[-84.0375,39.826],[-84.0384565,39.8269609],[-84.0405774,39.8294978],[-84.0406438,39.8296483],[-84.0373133,39.8273827],[-84.0294052,39.8220256],[-84.0293151,39.8219621],[-84.029225,39.8218986],[-84.029135,39.8218351],[-84.0290449,39.8217716],[-84.0289548,39.8217082],[-84.0288647,39.8216447],[-84.0287746,39.8215813],[-84.0286845,39.8215178],[-84.0285944,39.8214543],[-84.0285042,39.8213909],[-84.0284141,39.8213274],[-84.0283239,39.8212639],[-84.02802,39.81964],[-84.027689,39.821956],[-84.02653,39.82189],[-84.026234,39.825226],[-84.025141,39.825139],[-84.0253177,39.8234888],[-84.0246706,39.8234491],[-84.024521,39.824858],[-84.0240858,39.824709],[-84.0233133,39.824991],[-84.0228241,39.8247168],[-84.02351,39.824443],[-84.02384,39.82173],[-84.0224753,39.8216453],[-84.022222,39.824088],[-84.019401,39.823302],[-84.0195916,39.8214376],[-84.0200022,39.8214815],[-84.0204129,39.8215255],[-84.0208237,39.8215694],[-84.0212345,39.8216133],[-84.0216453,39.8216573],[-84.0220562,39.8217012],[-84.0224671,39.8217451],[-84.022878,39.8217891],[-84.0232889,39.821833],[-84.0236998,39.8218769],[-84.0241107,39.8219208],[-84.0245216,39.8219647],[-84.0247147,39.8219702],[-84.0249226,39.8219752],[-84.0251449,39.8219796],[-84.0253808,39.8219831],[-84.0256298,39.8219856],[-84.0258912,39.8219868],[-84.0261646,39.8219865],[-84.0264493,39.8219846],[-84.0267446,39.8219808],[-84.0270501,39.8219749],[-84.0273651,39.8219667],[-84.027689,39.821956],[-84.0277661,39.8218453],[-84.0278383,39.8217391],[-84.0279067,39.8216362],[-84.0279724,39.8215356],[-84.0280364,39.8214361],[-84.0280996,39.8213367],[-84.0281631,39.8212363],[-84.028228,39.8211337],[-84.0282953,39.8210279],[-84.028366,39.8209177],[-84.0284411,39.8208021],[-84.0285216,39.8206799],[-84.028629,39.8205165],[-84.028741,39.8203433],[-84.0288563,39.8201627],[-84.0289739,39.8199771],[-84.0290927,39.819789],[-84.0292117,39.819601],[-84.0293296,39.8194154],[-84.0294454,39.8192347],[-84.0295579,39.8190615],[-84.0296661,39.8188982],[-84.0297689,39.8187473],[-84.0298652,39.8186111],[-84.0301291,39.8182659],[-84.0304163,39.8179241],[-84.0307237,39.8175853],[-84.0310486,39.8172495],[-84.0313882,39.8169162],[-84.0317394,39.8165851],[-84.0320995,39.8162561],[-84.0324657,39.8159288],[-84.0328349,39.8156029],[-84.0332045,39.8152782],[-84.0335714,39.8149544],[-84.0339329,39.8146312],[-84.0341802,39.8144072],[-84.0344237,39.8141854],[-84.0346619,39.8139675],[-84.0348934,39.813755],[-84.0351167,39.8135497],[-84.0353304,39.8133532],[-84.0355331,39.8131671],[-84.0357232,39.8129932],[-84.0358994,39.8128329],[-84.0360602,39.812688],[-84.0362042,39.8125602],[-84.0363299,39.8124511],[-84.0364165,39.8123543],[-84.0364795,39.812301],[-84.0366561,39.8121486],[-84.0369276,39.8119075],[-84.0372754,39.8115887],[-84.0376807,39.8112029],[-84.0381249,39.8107608],[-84.0385893,39.8102732],[-84.0390553,39.8097508],[-84.039504,39.8092043],[-84.039917,39.8086446],[-84.0402754,39.8080823],[-84.0405607,39.8075282],[-84.0405016,39.8075305],[-84.0404396,39.8075336],[-84.040375,39.8075373],[-84.0403081,39.8075413],[-84.0402392,39.8075455],[-84.0401685,39.8075495],[-84.0400965,39.8075533],[-84.0400233,39.8075565],[-84.0399492,39.8075589],[-84.0398746,39.8075604],[-84.0397998,39.8075606],[-84.039725,39.8075595],[-84.0394743,39.8075512],[-84.039221,39.8075396],[-84.03897,39.8075254],[-84.0387257,39.8075094],[-84.0384929,39.8074924],[-84.038276,39.8074752],[-84.0380799,39.8074585],[-84.037909,39.8074431],[-84.0377681,39.8074298],[-84.0376617,39.8074193],[-84.0375944,39.8074125],[-84.037571,39.80741],[-84.034989,39.80952],[-84.0367923,39.8106047],[-84.0385846,39.8104334],[-84.0391244,39.8097428],[-84.0391324,39.8097295],[-84.0391441,39.8097091],[-84.039158,39.8096828],[-84.0391729,39.8096515],[-84.0391875,39.8096163],[-84.0392005,39.8095782],[-84.0392106,39.8095383],[-84.0392166,39.8094976],[-84.0392171,39.8094571],[-84.0392109,39.809418],[-84.0391967,39.8093812],[-84.0391731,39.8093479],[-84.0391442,39.8093226],[-84.0391106,39.8093038],[-84.0390736,39.8092906],[-84.0390343,39.8092822],[-84.0389937,39.809278],[-84.0389532,39.8092772],[-84.0389138,39.809279],[-84.0388767,39.8092827],[-84.038843,39.8092876],[-84.038814,39.8092929],[-84.0387907,39.8092978],[-84.0387742,39.8093017],[-84.0387519,39.8093329],[-84.0387295,39.809364],[-84.0387071,39.8093952],[-84.0386847,39.8094263],[-84.0386623,39.8094575],[-84.0386399,39.8094887],[-84.0386175,39.8095198],[-84.0385951,39.809551],[-84.0385727,39.8095821],[-84.0385503,39.8096133],[-84.0385279,39.8096445],[-84.0385055,39.8096756],[-84.0379547,39.8103782],[-84.0379517,39.8103809],[-84.037943,39.8103882],[-84.0379293,39.8103993],[-84.0379113,39.8104132],[-84.0378895,39.8104291],[-84.0378647,39.810446],[-84.0378374,39.810463],[-84.0378084,39.8104792],[-84.0377782,39.8104937],[-84.0377476,39.8105056],[-84.0377171,39.810514],[-84.0376875,39.8105179],[-84.0376626,39.810517],[-84.0376428,39.8105123],[-84.0376274,39.8105044],[-84.0376159,39.8104941],[-84.0376078,39.8104822],[-84.0376025,39.8104694],[-84.0375995,39.8104565],[-84.0375982,39.8104443],[-84.0375982,39.8104335],[-84.0375989,39.8104248],[-84.0375996,39.810419],[-84.0376,39.8104169],[-84.0381475,39.8097154],[-84.0381715,39.8096814],[-84.0381954,39.8096474],[-84.0382193,39.8096134],[-84.0382432,39.8095794],[-84.0382671,39.8095454],[-84.038291,39.8095114],[-84.0383149,39.8094775],[-84.0383388,39.8094435],[-84.0383627,39.8094095],[-84.0383866,39.8093755],[-84.0384105,39.8093415],[-84.0384344,39.8093075],[-84.0385353,39.8093923],[-84.0386819,39.8095117],[-84.0388725,39.8096612],[-84.0391053,39.8098362],[-84.0393786,39.8100322],[-84.0396906,39.8102445],[-84.0400396,39.8104687],[-84.0404238,39.8107001],[-84.0408415,39.8109342],[-84.0412909,39.8111664],[-84.0417703,39.8113923],[-84.0422779,39.8116071],[-84.0419413,39.8116555],[-84.0416175,39.8117098],[-84.0413077,39.8117687],[-84.0410131,39.811831],[-84.0407348,39.8118955],[-84.040474,39.8119609],[-84.0402318,39.8120259],[-84.0400095,39.8120894],[-84.0398082,39.8121501],[-84.0396291,39.8122068],[-84.0394733,39.8122581],[-84.039342,39.812303],[-84.0389793,39.8120711],[-84.0386165,39.8118391],[-84.0382538,39.8116072],[-84.037891,39.8113753],[-84.0375283,39.8111434],[-84.0371655,39.8109115],[-84.0368027,39.8106796],[-84.03644,39.8104477],[-84.0360772,39.8102158],[-84.0357145,39.8099839],[-84.0353517,39.8097519],[-84.034989,39.80952],[-84.0353994,39.8091764],[-84.0358099,39.8088328],[-84.0362203,39.8084891],[-84.0366309,39.8081454],[-84.0370414,39.8078017],[-84.037452,39.807458],[-84.0378626,39.8071143],[-84.0382731,39.8067706],[-84.0386837,39.8064269],[-84.0390941,39.8060832],[-84.0395046,39.8057396],[-84.039915,39.805396],[-84.0398778,39.8058441],[-84.0398407,39.8062922],[-84.0398035,39.8067403],[-84.0397663,39.8071884],[-84.0397292,39.8076366],[-84.039692,39.8080847],[-84.0396548,39.8085328],[-84.0396176,39.808981],[-84.0395804,39.8094291],[-84.0395433,39.8098772],[-84.0395061,39.8103253],[-84.039469,39.8107734],[-84.0394237,39.8107821],[-84.0393783,39.8107908],[-84.039333,39.8107995],[-84.0392876,39.8108082],[-84.0392423,39.810817],[-84.0391969,39.8108257],[-84.0391516,39.8108345],[-84.0391062,39.8108432],[-84.0390609,39.8108519],[-84.0390155,39.8108607],[-84.0389702,39.8108694],[-84.0389249,39.8108781],[-84.0388251,39.8110096],[-84.0387253,39.8111412],[-84.0386255,39.8112727],[-84.0385257,39.8114041],[-84.038426,39.8115355],[-84.0383262,39.811667],[-84.0382265,39.8117984],[-84.0381268,39.8119297],[-84.038027,39.8120611],[-84.0379273,39.8121925],[-84.0378275,39.8123239],[-84.0377277,39.8124553],[-84.0384733,39.8145477],[-84.0384113,39.8147179],[-84.0383494,39.8148881],[-84.0382874,39.8150582],[-84.0382255,39.8152284],[-84.0381635,39.8153986],[-84.0381016,39.8155688],[-84.0380397,39.815739],[-84.0379777,39.8159092],[-84.0379158,39.8160794],[-84.0378538,39.8162496],[-84.0377919,39.8164198],[-84.03773,39.81659],[-84.0377374,39.8165846],[-84.0377449,39.8165793],[-84.0377524,39.8165739],[-84.0377599,39.8165685],[-84.0377674,39.8165631],[-84.0377749,39.8165577],[-84.0377825,39.8165523],[-84.03779,39.8165469],[-84.0377975,39.8165415],[-84.037805,39.8165361],[-84.0378124,39.8165308],[-84.0378199,39.8165254],[-84.0378304,39.8165166],[-84.037867,39.8164906],[-84.0379377,39.8164483],[-84.0380503,39.8163905],[-84.0382126,39.8163181],[-84.0384325,39.8162318],[-84.0387178,39.8161326],[-84.0390764,39.8160211],[-84.039516,39.8158983],[-84.0400446,39.815765],[-84.04067,39.8156219],[-84.0414,39.81547],[-84.0417055,39.8150906],[-84.0420113,39.8147146],[-84.0423156,39.8143435],[-84.0426171,39.8139788],[-84.0429139,39.8136221],[-84.0432047,39.8132748],[-84.0434879,39.8129386],[-84.0437618,39.8126148],[-84.0440249,39.8123051],[-84.0442757,39.8120109],[-84.0445125,39.8117338],[-84.0447338,39.8114752],[-84.04486,39.8113274],[-84.0449941,39.8111684],[-84.0451347,39.8109991],[-84.0452802,39.8108203],[-84.0454291,39.8106327],[-84.0455799,39.810437],[-84.0457311,39.8102342],[-84.0458813,39.8100249],[-84.0460288,39.8098099],[-84.0461723,39.8095901],[-84.0463101,39.8093661],[-84.0464409,39.8091388],[-84.0465793,39.8090348],[-84.0485215,39.8074662],[-84.0486225,39.8052521],[-84.0569208,39.7996475],[-84.0569397,39.7996292],[-84.0569587,39.799611],[-84.0569776,39.7995927],[-84.0569965,39.7995745],[-84.0570154,39.7995562],[-84.0570343,39.799538],[-84.0570532,39.7995198],[-84.0570721,39.7995015],[-84.0570909,39.7994833],[-84.0571098,39.799465],[-84.0571287,39.7994468],[-84.0571475,39.7994285],[-84.0572393,39.7994553],[-84.0573253,39.7994817],[-84.0574056,39.7995076],[-84.0574805,39.7995329],[-84.05755,39.7995576],[-84.0576143,39.7995816],[-84.0576735,39.7996047],[-84.057728,39.7996268],[-84.0577776,39.7996479],[-84.0578228,39.7996679],[-84.0578635,39.7996866],[-84.0579,39.799704],[-84.0577294,39.7995079],[-84.0575798,39.7993247],[-84.0574458,39.7991499],[-84.0573221,39.7989791],[-84.0572033,39.7988079],[-84.057084,39.7986317],[-84.0569589,39.7984461],[-84.0568226,39.7982466],[-84.0566698,39.7980289],[-84.0564951,39.7977883],[-84.0562931,39.7975205],[-84.0560586,39.797221],[-84.0560212,39.7971742],[-84.0559833,39.7971269],[-84.0559446,39.7970787],[-84.055905,39.7970292],[-84.0558642,39.796978],[-84.0558219,39.7969247],[-84.055778,39.7968688],[-84.0557321,39.7968099],[-84.0556841,39.7967477],[-84.0556336,39.7966817],[-84.0555806,39.7966115],[-84.0555247,39.7965367],[-84.0554381,39.7964193],[-84.0553553,39.7963055],[-84.0552765,39.7961953],[-84.0552017,39.796089],[-84.0551307,39.7959868],[-84.0550638,39.7958889],[-84.0550008,39.7957955],[-84.0549419,39.7957069],[-84.0548869,39.7956232],[-84.054836,39.7955446],[-84.054789,39.7954713],[-84.0547462,39.7954036],[-84.0546424,39.7951737],[-84.0545426,39.7949516],[-84.0544469,39.7947375],[-84.0543553,39.7945315],[-84.0542679,39.7943339],[-84.0541846,39.7941448],[-84.0541056,39.7939645],[-84.0540308,39.7937932],[-84.0539603,39.7936309],[-84.0538942,39.793478],[-84.0538324,39.7933347],[-84.053775,39.793201],[-84.0536895,39.7930009],[-84.0536124,39.7928205],[-84.0535423,39.7926573],[-84.0534776,39.7925089],[-84.053417,39.7923729],[-84.0533588,39.7922468],[-84.0533016,39.7921281],[-84.0532438,39.7920145],[-84.053184,39.7919034],[-84.0531206,39.7917925],[-84.0530521,39.7916792],[-84.0529771,39.7915613],[-84.0529456,39.7915133],[-84.052901,39.7914474],[-84.0528426,39.791364],[-84.0527697,39.7912637],[-84.0526817,39.7911472],[-84.0525778,39.7910149],[-84.0524575,39.7908673],[-84.0523201,39.7907052],[-84.0521648,39.790529],[-84.051991,39.7903393],[-84.051798,39.7901367],[-84.0515851,39.7899216],[-84.0512781,39.7896254],[-84.0509741,39.7893469],[-84.0506743,39.7890858],[-84.05038,39.7888416],[-84.0500923,39.7886141],[-84.0498124,39.7884029],[-84.0495415,39.7882074],[-84.0492808,39.7880275],[-84.0490314,39.7878625],[-84.0487946,39.7877123],[-84.0485716,39.7875764],[-84.0483635,39.7874544],[-84.0483511,39.7874478],[-84.048331,39.7874375],[-84.0483045,39.7874246],[-84.0482729,39.7874105],[-84.0482378,39.7873964],[-84.0482004,39.7873834],[-84.0481622,39.7873728],[-84.0481245,39.7873659],[-84.0480888,39.7873638],[-84.0480564,39.7873679],[-84.0480288,39.7873792],[-84.0480073,39.7873991],[-84.047992,39.7874338],[-84.0479888,39.7874781],[-84.0479968,39.7875304],[-84.0480146,39.7875895],[-84.0480412,39.7876538],[-84.0480754,39.7877219],[-84.048116,39.7877924],[-84.0481618,39.7878638],[-84.0482117,39.7879348],[-84.0482645,39.7880039],[-84.048319,39.7880696],[-84.0483741,39.7881306],[-84.048447,39.788203],[-84.048519,39.7882662],[-84.0485892,39.7883208],[-84.0486569,39.7883673],[-84.0487212,39.7884065],[-84.0487811,39.7884388],[-84.0488358,39.7884649],[-84.0488845,39.7884853],[-84.0489262,39.7885007],[-84.0489602,39.7885117],[-84.0489855,39.7885188],[-84.0490012,39.7885227],[-84.0490232,39.7885336],[-84.0490452,39.7885445],[-84.0490671,39.7885553],[-84.0490891,39.7885662],[-84.0491111,39.788577],[-84.0491331,39.7885879],[-84.0491551,39.7885987],[-84.0491771,39.7886096],[-84.0491991,39.7886204],[-84.0492211,39.7886313],[-84.049243,39.7886421],[-84.049265,39.788653],[-84.0493988,39.7888884],[-84.0495327,39.7891239],[-84.0496665,39.7893594],[-84.0498004,39.789595],[-84.0499343,39.7898305],[-84.0500682,39.7900661],[-84.0502021,39.7903017],[-84.050336,39.7905372],[-84.0504699,39.7907728],[-84.0506037,39.7910083],[-84.0507376,39.7912438],[-84.0508714,39.7914792],[-84.050918,39.7914476],[-84.0509645,39.791416],[-84.051011,39.7913845],[-84.0510575,39.7913529],[-84.051104,39.7913213],[-84.0511505,39.7912897],[-84.0511969,39.7912581],[-84.0512434,39.7912265],[-84.0512899,39.791195],[-84.0513364,39.7911634],[-84.0513829,39.7911318],[-84.0514295,39.7911002],[-84.0518714,39.7907213],[-84.0525762,39.7905258],[-84.0530084,39.7903043],[-84.057327,39.7907391],[-84.0574121,39.7907431],[-84.0576528,39.7907537],[-84.0580273,39.7907687],[-84.0585137,39.7907857],[-84.0590903,39.7908026],[-84.059735,39.7908171],[-84.0604261,39.790827],[-84.0611418,39.7908301],[-84.0618602,39.790824],[-84.0625594,39.7908067],[-84.0632177,39.7907757],[-84.063813,39.790729],[-84.0646011,39.7906528],[-84.0654152,39.7905782],[-84.0662537,39.7905046],[-84.0671152,39.7904316],[-84.0679979,39.7903586],[-84.0689002,39.7902852],[-84.0698207,39.7902109],[-84.0707576,39.7901352],[-84.0717094,39.7900575],[-84.0726746,39.7899775],[-84.0736514,39.7898947],[-84.0746384,39.7898084],[-84.0748404,39.7898041],[-84.0830389,39.7896748],[-84.0830493,39.7896754],[-84.0830796,39.7896767],[-84.0831288,39.7896784],[-84.0831957,39.7896801],[-84.0832791,39.7896813],[-84.0833777,39.7896816],[-84.0834905,39.7896805],[-84.0836163,39.7896776],[-84.0837538,39.7896725],[-84.083902,39.7896647],[-84.0840597,39.7896538],[-84.0842256,39.7896394],[-84.0843667,39.7896246],[-84.0845039,39.7896072],[-84.0846373,39.789587],[-84.0847668,39.7895638],[-84.0848924,39.7895374],[-84.0850141,39.7895074],[-84.085132,39.7894736],[-84.0852459,39.7894358],[-84.0853559,39.7893937],[-84.0854621,39.7893471],[-84.0855643,39.7892957],[-84.0856626,39.7892392],[-84.0858731,39.7891085],[-84.0860614,39.788988],[-84.0862283,39.7888781],[-84.0863746,39.7887788],[-84.0865008,39.7886905],[-84.0866078,39.7886132],[-84.0866964,39.7885473],[-84.0867672,39.7884929],[-84.0868209,39.7884503],[-84.0868584,39.7884195],[-84.0868804,39.788401],[-84.0868875,39.7883947],[-84.0869859,39.7883973],[-84.0870919,39.7884],[-84.0872053,39.7884028],[-84.0873259,39.7884057],[-84.0874534,39.7884086],[-84.0875876,39.7884116],[-84.0877284,39.7884146],[-84.0878755,39.7884176],[-84.0880286,39.7884206],[-84.0881876,39.7884235],[-84.0883522,39.7884264],[-84.0885222,39.7884292],[-84.0887407,39.7884325],[-84.0889479,39.7884353],[-84.0891428,39.7884378],[-84.0893246,39.7884398],[-84.0894924,39.7884415],[-84.0896453,39.788443],[-84.0897825,39.7884441],[-84.0899031,39.788445],[-84.0900063,39.7884457],[-84.0900911,39.7884462],[-84.0901568,39.7884466],[-84.0902024,39.7884468],[-84.0904202,39.7884499],[-84.09066,39.7884564],[-84.0909232,39.788467],[-84.0912108,39.7884823],[-84.0915244,39.7885027],[-84.091865,39.7885289],[-84.0922341,39.7885613],[-84.0926328,39.7886006],[-84.0930625,39.7886473],[-84.0935244,39.7887018],[-84.0940198,39.7887649],[-84.0945499,39.788837],[-84.0945832,39.7888431],[-84.0946202,39.7888497],[-84.0946608,39.7888571],[-84.094705,39.788865],[-84.0947526,39.7888735],[-84.0948034,39.7888826],[-84.0948573,39.7888923],[-84.0949142,39.7889024],[-84.094974,39.788913],[-84.0950366,39.7889241],[-84.0951017,39.7889357],[-84.0951694,39.7889476],[-84.0953371,39.7889771],[-84.095485,39.789003],[-84.0956152,39.7890259],[-84.0957296,39.7890462],[-84.0958301,39.7890644],[-84.0959189,39.7890809],[-84.0959977,39.7890964],[-84.0960688,39.7891111],[-84.0961339,39.7891258],[-84.0961952,39.7891407],[-84.0962545,39.7891564],[-84.0963139,39.7891734],[-84.0963478,39.7891836],[-84.0963838,39.7891948],[-84.0964215,39.789207],[-84.0964609,39.7892204],[-84.0965017,39.7892349],[-84.0965437,39.7892506],[-84.0965867,39.7892674],[-84.0966305,39.7892855],[-84.0966749,39.7893048],[-84.0967197,39.7893254],[-84.0967646,39.7893473],[-84.0968095,39.7893705],[-84.0969246,39.789413],[-84.0970398,39.7894555],[-84.0971549,39.789498],[-84.0972699,39.7895406],[-84.097385,39.7895831],[-84.0975,39.7896256],[-84.097615,39.7896681],[-84.09773,39.7897106],[-84.097845,39.7897532],[-84.0979599,39.7897957],[-84.0980749,39.7898382],[-84.0981898,39.7898807],[-84.0983461,39.7896711],[-84.0985023,39.7894615],[-84.0986585,39.7892519],[-84.0988147,39.7890423],[-84.0989709,39.7888327],[-84.0991271,39.7886231],[-84.0992833,39.7884135],[-84.0994395,39.7882038],[-84.0995957,39.7879942],[-84.0997519,39.7877846],[-84.0999081,39.787575],[-84.1000643,39.7873654],[-84.1000695,39.7873652],[-84.1000843,39.7873646],[-84.1001072,39.7873637],[-84.1001366,39.7873623],[-84.100171,39.7873606],[-84.100209,39.7873585],[-84.100249,39.787356],[-84.1002895,39.7873531],[-84.1003292,39.7873498],[-84.1003664,39.7873461],[-84.1003996,39.787342],[-84.1004275,39.7873375],[-84.1004494,39.7873331],[-84.1004742,39.7873277],[-84.1005014,39.7873213],[-84.1005303,39.7873143],[-84.1005605,39.7873066],[-84.1005913,39.7872984],[-84.1006223,39.7872899],[-84.1006529,39.7872811],[-84.1006825,39.7872722],[-84.1007107,39.7872634],[-84.1007367,39.7872548],[-84.1007601,39.7872464],[-84.1008036,39.7872298],[-84.1008523,39.7872105],[-84.1009053,39.7871889],[-84.1009616,39.7871656],[-84.1010204,39.787141],[-84.1010806,39.7871157],[-84.1011412,39.7870902],[-84.1012015,39.787065],[-84.1012603,39.7870406],[-84.1013167,39.7870175],[-84.1013698,39.7869961],[-84.1014187,39.7869771],[-84.1014331,39.7869717],[-84.1014491,39.7869657],[-84.1014666,39.7869593],[-84.1014851,39.7869526],[-84.1015042,39.7869457],[-84.1015237,39.7869387],[-84.1015431,39.7869317],[-84.1015622,39.7869249],[-84.1015807,39.7869184],[-84.101598,39.7869122],[-84.101614,39.7869065],[-84.1016283,39.7869013],[-84.1016347,39.7868994],[-84.1016471,39.7868959],[-84.1016642,39.7868913],[-84.1016848,39.7868857],[-84.1017076,39.7868796],[-84.1017314,39.7868733],[-84.101755,39.786867],[-84.101777,39.7868612],[-84.1017964,39.7868561],[-84.1018117,39.786852],[-84.1018218,39.7868494],[-84.1018255,39.7868484],[-84.1018331,39.7868366],[-84.1018557,39.7868031],[-84.1018925,39.786751],[-84.1019428,39.7866836],[-84.102006,39.786604],[-84.1020814,39.7865152],[-84.1021684,39.7864204],[-84.1022663,39.7863227],[-84.1023744,39.7862253],[-84.102492,39.7861312],[-84.1026185,39.7860436],[-84.1027533,39.7859657],[-84.1028187,39.7859551],[-84.1028732,39.785947],[-84.1029179,39.7859413],[-84.102954,39.7859377],[-84.1029827,39.7859359],[-84.1030052,39.7859356],[-84.1030228,39.7859366],[-84.1030366,39.7859386],[-84.1030479,39.7859413],[-84.1030577,39.7859445],[-84.1030674,39.7859478],[-84.1030781,39.7859511],[-84.1034147,39.7856769],[-84.1095859,39.7823214],[-84.1095664,39.7822862],[-84.1095468,39.782251],[-84.1095271,39.7822159],[-84.1095075,39.7821808],[-84.1094879,39.7821457],[-84.1094682,39.7821106],[-84.1094485,39.7820755],[-84.1094288,39.7820404],[-84.1094091,39.7820053],[-84.1093894,39.7819702],[-84.1093697,39.7819351],[-84.10935,39.7819]]}}]}
