{"type":"FeatureCollection","features":[{"type":"Feature","properties":{"id":"strava-641966162","adventureIds":["rebel-run-5k-2015"],"category":"road","stravaActivityId":"641966162","source":"Strava GPX export"},"geometry":{"type":"LineString","coordinates":[[-95.31358,38.940876],[-95.312126,38.94015],[-95.31091,38.939148],[-95.30927,38.93745],[-95.308655,38.936306],[-95.30818,38.935703],[-95.30865,38.935577],[-95.30902,38.9357],[-95.30943,38.93561],[-95.31329,38.935646],[-95.313934,38.93552],[-95.31473,38.935593],[-95.3175,38.93537],[-95.31776,38.935707],[-95.318405,38.935883],[-95.32084,38.937412],[-95.3255,38.940025],[-95.318306,38.93598],[-95.31745,38.935326],[-95.31678,38.935368],[-95.315704,38.935665],[-95.31481,38.935535],[-95.31374,38.935646],[-95.312935,38.935513],[-95.30799,38.935646],[-95.307945,38.93574],[-95.310135,38.938328],[-95.31189,38.93994],[-95.31214,38.93995],[-95.31326,38.939526]]}},{"type":"Feature","properties":{"id":"strava-641962927","adventureIds":["big-12-run-12k-2016"],"category":"road","stravaActivityId":"641962927","source":"Strava GPX export"},"geometry":{"type":"LineString","coordinates":[[-94.58096,39.09971],[-94.580894,39.101368],[-94.581116,39.10321],[-94.58078,39.104317],[-94.580376,39.10449],[-94.57777,39.10433],[-94.575584,39.10441],[-94.575294,39.10423],[-94.57498,39.102936],[-94.575005,39.10022],[-94.575294,39.097527],[-94.57515,39.095707],[-94.57264,39.095325],[-94.56565,39.095215],[-94.56421,39.09505],[-94.563866,39.095154],[-94.56245,39.095104],[-94.56105,39.094963],[-94.56087,39.09476],[-94.56092,39.091328],[-94.561226,39.091175],[-94.56205,39.091225],[-94.56231,39.092026],[-94.56268,39.092083],[-94.56417,39.091995],[-94.5645,39.091244],[-94.56459,39.090652],[-94.564415,39.090065],[-94.56458,39.089844],[-94.56474,39.089844],[-94.564575,39.08975],[-94.56477,39.08853],[-94.56521,39.086956],[-94.56641,39.083706],[-94.56649,39.0829],[-94.566444,39.082104],[-94.56583,39.08082],[-94.56571,39.080063],[-94.565735,39.07869],[-94.56532,39.077637],[-94.56523,39.077057],[-94.565445,39.076286],[-94.56646,39.074833],[-94.56683,39.072987],[-94.56758,39.07177],[-94.56742,39.07124],[-94.56694,39.070553],[-94.567116,39.070335],[-94.57638,39.070705],[-94.57658,39.070858],[-94.57652,39.072308],[-94.57677,39.072487],[-94.57784,39.072582],[-94.57876,39.073193],[-94.57889,39.074066],[-94.57846,39.07782],[-94.578384,39.079224],[-94.57848,39.08097],[-94.57878,39.081444],[-94.579315,39.083282],[-94.58013,39.083805],[-94.58156,39.084057],[-94.581795,39.084297],[-94.58161,39.08501],[-94.58146,39.087067],[-94.58142,39.08825],[-94.58155,39.08885],[-94.581245,39.091923],[-94.5813,39.095367],[-94.58108,39.095684],[-94.578896,39.09576],[-94.578804,39.09598],[-94.578804,39.096878],[-94.57897,39.09751],[-94.57879,39.097866],[-94.57869,39.098793],[-94.57873,39.099747],[-94.5786,39.100273],[-94.5785,39.102657],[-94.57858,39.103443],[-94.57989,39.103508],[-94.58072,39.10331],[-94.5806,39.10229],[-94.58075,39.101974],[-94.58073,39.100864],[-94.58099,39.09943]]}}]}