{"type":"FeatureCollection","features":[{"type":"Feature","id":"strava-14522257426","properties":{"featureId":"strava-14522257426","adventureIds":["colfax-marathon-2025"],"date":"2025-05-18","stravaActivityId":"14522257426","activityName":"Nike Run Club: Sunday Morning Run","category":"marathon"},"geometry":{"type":"LineString","coordinates":[[-104.948113,39.747867],[-104.956467,39.749165],[-104.954406,39.745856],[-104.960193,39.740027],[-104.998505,39.740443],[-105.007904,39.754272],[-105.015838,39.743043],[-105.019621,39.745355],[-105.02382,39.740609],[-105.041669,39.74046],[-105.042319,39.744581],[-105.036835,39.745293],[-105.045918,39.752818],[-105.052538,39.751817],[-105.052491,39.746389],[-105.041679,39.740489],[-105.071543,39.740392],[-105.06745,39.743077],[-105.072226,39.747578],[-105.099629,39.746534],[-105.098564,39.740273],[-105.024278,39.740515],[-105.019332,39.745334],[-105.016153,39.743045],[-105.008519,39.754263],[-105.000129,39.74644],[-104.995381,39.749455],[-104.986423,39.743261],[-104.962338,39.743318],[-104.962278,39.748012],[-104.955981,39.749414],[-104.947256,39.746871]]}},{"type":"Feature","id":"strava-14377032125","properties":{"featureId":"strava-14377032125","adventureIds":["flying-pig-marathon-2025"],"date":"2025-05-04","stravaActivityId":"14377032125","activityName":"Nike Run Club: Sunday Morning Run","category":"marathon"},"geometry":{"type":"LineString","coordinates":[[-84.514773,39.096438],[-84.504184,39.098588],[-84.494448,39.09236],[-84.517255,39.086656],[-84.526372,39.102252],[-84.505907,39.104979],[-84.497788,39.116508],[-84.492607,39.112884],[-84.486335,39.117821],[-84.484375,39.125541],[-84.460559,39.132456],[-84.451267,39.14034],[-84.425786,39.138102],[-84.400804,39.152251],[-84.372332,39.146441],[-84.394989,39.149176],[-84.392223,39.141819],[-84.403,39.137373],[-84.428793,39.107617],[-84.449892,39.121375],[-84.46828,39.123747],[-84.484472,39.116864],[-84.495436,39.103972],[-84.511563,39.095636]]}},{"type":"Feature","id":"strava-12535362010","properties":{"featureId":"strava-12535362010","adventureIds":["boulderthon-2024"],"date":"2024-09-29","stravaActivityId":"12535362010","activityName":"Boulderthon","category":"marathon"},"geometry":{"type":"LineString","coordinates":[[-105.272048,40.019489],[-105.236184,40.022125],[-105.211509,40.031867],[-105.206808,40.050873],[-105.178429,40.053054],[-105.178026,40.072784],[-105.131557,40.07286],[-105.131553,40.101554],[-105.169098,40.101482],[-105.16916,40.072845],[-105.178655,40.072358],[-105.179183,40.053139],[-105.220533,40.050974],[-105.221054,40.040126],[-105.236732,40.040113],[-105.244118,40.033697],[-105.235192,40.026266],[-105.263841,40.028111],[-105.277672,40.019152]]}},{"type":"Feature","id":"strava-6094685711","properties":{"featureId":"strava-6094685711","adventureIds":["chicago-marathon-2021"],"date":"2021-10-10","stravaActivityId":"6094685711","activityName":"Fort Dearborn Addition - Park Row","category":"marathon"},"geometry":{"type":"LineString","coordinates":[[-87.620849,41.880557],[-87.620528,41.89167],[-87.626358,41.892],[-87.62788,41.878275],[-87.631954,41.878527],[-87.633879,41.92583],[-87.6452,41.952549],[-87.649499,41.952782],[-87.638519,41.911217],[-87.634603,41.910648],[-87.635362,41.882011],[-87.676371,41.87771],[-87.647499,41.877946],[-87.647109,41.869613],[-87.661597,41.869115],[-87.66114,41.857974],[-87.646678,41.85796],[-87.650802,41.85268],[-87.632295,41.852772],[-87.631544,41.834757],[-87.626531,41.831071],[-87.621828,41.831323],[-87.624708,41.865281],[-87.620513,41.869702]]}},{"type":"Feature","id":"strava-4312788772","properties":{"featureId":"strava-4312788772","adventureIds":["kansas-city-marathon-2019"],"date":"2019-10-19","stravaActivityId":"4312788772","activityName":"Saturday Morning Run","category":"marathon"},"geometry":{"type":"LineString","coordinates":[[-94.581602,39.085152],[-94.580864,39.103604],[-94.577189,39.102941],[-94.57876,39.091592],[-94.560873,39.094655],[-94.566531,39.082905],[-94.567091,39.063343],[-94.579493,39.055765],[-94.574114,39.04217],[-94.582525,39.039032],[-94.565467,39.040959],[-94.582142,39.038648],[-94.583002,39.029131],[-94.591705,39.035032],[-94.592466,39.026622],[-94.602536,39.026438],[-94.602744,39.001946],[-94.580267,39.000788],[-94.579995,38.997201],[-94.58064,38.991686],[-94.603383,38.992881],[-94.602171,39.031751],[-94.593649,39.039376],[-94.582554,39.038827],[-94.591312,39.052575],[-94.586255,39.055343],[-94.59052,39.062745],[-94.585662,39.064215],[-94.584155,39.083587]]}},{"type":"Feature","id":"strava-641964287","properties":{"featureId":"strava-641964287","adventureIds":["twin-cities-marathon-2015"],"date":"2015-10-04","stravaActivityId":"641964287","activityName":"Morning Run","category":"marathon"},"geometry":{"type":"LineString","coordinates":[[-93.26244,44.973927],[-93.27368,44.97895],[-93.28807,44.97182],[-93.28902,44.966385],[-93.30706,44.9664],[-93.31744,44.95245],[-93.3206,44.93596],[-93.29709,44.926155],[-93.29999,44.916912],[-93.29624,44.90807],[-93.27959,44.905712],[-93.26929,44.912334],[-93.24773,44.916054],[-93.25194,44.903957],[-93.24536,44.901367],[-93.23431,44.91246],[-93.23986,44.91635],[-93.20406,44.92006],[-93.20392,44.946533],[-93.22487,44.962498],[-93.22113,44.964714],[-93.19209,44.94139],[-93.11827,44.941322],[-93.10474,44.951942]]}},{"type":"Feature","id":"strava-641965920","properties":{"featureId":"strava-641965920","adventureIds":["illinois-marathon-2015"],"date":"2015-04-25","stravaActivityId":"641965920","activityName":"Illinois Marathon","category":"marathon"},"geometry":{"type":"LineString","coordinates":[[-88.23856,40.094593],[-88.23865,40.110104],[-88.208534,40.112522],[-88.195885,40.112915],[-88.19476,40.10588],[-88.181786,40.105682],[-88.181465,40.099102],[-88.176506,40.09857],[-88.180786,40.096832],[-88.17973,40.08829],[-88.20316,40.087685],[-88.20033,40.077232],[-88.20858,40.077496],[-88.20469,40.082455],[-88.20938,40.08429],[-88.20989,40.100666],[-88.22989,40.100582],[-88.24371,40.118237],[-88.27472,40.118423],[-88.26501,40.116272],[-88.26374,40.10896],[-88.281364,40.10913],[-88.28149,40.102596],[-88.29501,40.10213],[-88.302315,40.09169],[-88.2953,40.091038],[-88.29318,40.085693],[-88.278465,40.08699],[-88.28411,40.09398],[-88.28141,40.10225],[-88.268005,40.09918],[-88.267685,40.105396],[-88.23605,40.09909]]}},{"type":"Feature","id":"strava-641965501","properties":{"featureId":"strava-641965501","adventureIds":["free-state-tri-100-relay-2015"],"date":"2015-06-07","stravaActivityId":"641965501","activityName":"Clinton","category":"relay"},"geometry":{"type":"LineString","coordinates":[[-95.388016,38.936283],[-95.380745,38.941467],[-95.38725,38.938683],[-95.38597,38.935226],[-95.378944,38.93773],[-95.38626,38.935566],[-95.381256,38.940945],[-95.37471,38.936375],[-95.38142,38.941616],[-95.38809,38.935787],[-95.38108,38.94148],[-95.38624,38.935413],[-95.37876,38.937862],[-95.3861,38.93526],[-95.38115,38.94096],[-95.37476,38.936344],[-95.38149,38.941593],[-95.38807,38.935814],[-95.38815,38.93944],[-95.3797,38.941154],[-95.38736,38.938553],[-95.38236,38.93555],[-95.37896,38.940014],[-95.38477,38.935112],[-95.38729,38.93852],[-95.38055,38.939796]]}},{"type":"Feature","id":"strava-6814188054","properties":{"featureId":"strava-6814188054","adventureIds":["smr-stampede-50k-2022"],"date":"2022-03-12","stravaActivityId":"6814188054","activityName":"Morning Activity","category":"nordic"},"geometry":{"type":"LineString","coordinates":[[-105.927892,39.983652],[-105.921699,39.981446],[-105.943951,39.981168],[-105.933113,39.980096],[-105.938756,39.972719],[-105.938017,39.977477],[-105.948039,39.978857],[-105.946705,39.982621],[-105.959101,39.983139],[-105.948529,39.987459],[-105.921704,39.981578],[-105.943986,39.981123],[-105.933188,39.980349],[-105.938679,39.972676],[-105.937935,39.977474],[-105.948033,39.978833],[-105.946805,39.982673],[-105.959028,39.983238],[-105.948541,39.98744],[-105.927755,39.983827]]}},{"type":"Feature","id":"strava-6819611723","properties":{"featureId":"strava-6819611723","adventureIds":["smr-stampede-50k-2022"],"date":"2022-03-13","stravaActivityId":"6819611723","activityName":"Morning Activity","category":"nordic"},"geometry":{"type":"LineString","coordinates":[[-105.928635,39.983822],[-105.921681,39.981509],[-105.944001,39.981073],[-105.933083,39.980106],[-105.93871,39.972715],[-105.937855,39.977429],[-105.948039,39.9789],[-105.946651,39.982578],[-105.959072,39.983227],[-105.948508,39.98747],[-105.921699,39.981516],[-105.943968,39.98118],[-105.933159,39.980266],[-105.938791,39.972752],[-105.937856,39.977421],[-105.948035,39.978924],[-105.946676,39.982645],[-105.95909,39.983182],[-105.948626,39.987443],[-105.927559,39.983723]]}},{"type":"Feature","id":"strava-10596610840","properties":{"featureId":"strava-10596610840","adventureIds":["stagecoach-classic-15k-2024"],"date":"2024-01-20","stravaActivityId":"10596610840","activityName":"2024 Stagecoach Classic 15k","category":"nordic"},"geometry":{"type":"LineString","coordinates":[[-105.783084,39.967359],[-105.775973,39.964558],[-105.77737,39.956657],[-105.770151,39.952887],[-105.773205,39.950023],[-105.767188,39.950235],[-105.771043,39.961206],[-105.764613,39.955025],[-105.767174,39.959504],[-105.762711,39.962393],[-105.764524,39.951318],[-105.764111,39.958653],[-105.759317,39.960461],[-105.763845,39.967015],[-105.770539,39.962039],[-105.782656,39.967588]]}},{"type":"Feature","id":"strava-9642214422","properties":{"featureId":"strava-9642214422","adventureIds":["mount-democrat","mount-cameron","mount-lincoln","mount-bross"],"date":"2023-08-13","stravaActivityId":"9642214422","activityName":"Morning Hike","category":"summit"},"geometry":{"type":"LineString","coordinates":[[-106.129447,39.327711],[-106.118032,39.328044],[-106.107507,39.335254],[-106.117214,39.344707],[-106.111526,39.351513],[-106.14006,39.339599],[-106.126618,39.3381],[-106.129358,39.327826]]}},{"type":"Feature","id":"strava-7560672014","properties":{"featureId":"strava-7560672014","adventureIds":["mount-evans","mount-spalding"],"date":"2022-07-31","stravaActivityId":"7560672014","activityName":"Morning Hike","category":"summit"},"geometry":{"type":"LineString","coordinates":[[-105.640369,39.598549],[-105.642316,39.601803],[-105.657324,39.599495],[-105.657468,39.592688],[-105.643621,39.58752],[-105.657603,39.592919],[-105.65499,39.60075],[-105.640357,39.598802]]}},{"type":"Feature","id":"strava-7866173318","properties":{"featureId":"strava-7866173318","adventureIds":["mount-sherman"],"date":"2022-09-25","stravaActivityId":"7866173318","activityName":"Morning Hike","category":"summit"},"geometry":{"type":"LineString","coordinates":[[-106.185317,39.226182],[-106.180187,39.214084],[-106.170071,39.22495],[-106.180131,39.21411],[-106.185266,39.226044]]}},{"type":"Feature","id":"strava-6185031796","properties":{"featureId":"strava-6185031796","adventureIds":["mauna-kea"],"date":"2021-10-29","stravaActivityId":"6185031796","activityName":"Morning Hike","category":"summit"},"geometry":{"type":"LineString","coordinates":[[-155.455908,19.759304],[-155.464698,19.769763],[-155.462231,19.792636],[-155.475423,19.811071],[-155.47396,19.819278],[-155.467467,19.816814],[-155.470299,19.822116],[-155.467488,19.816927],[-155.47388,19.819556],[-155.475434,19.813153],[-155.462248,19.792562],[-155.464646,19.769789],[-155.456065,19.75916]]}},{"type":"Feature","id":"strava-4854788986","properties":{"featureId":"strava-4854788986","adventureIds":["haleakala"],"date":"2021-02-23","stravaActivityId":"4854788986","activityName":"Morning Hike","category":"summit"},"geometry":{"type":"LineString","coordinates":[[-156.250708,20.714714],[-156.246753,20.709366],[-156.238455,20.71298],[-156.219233,20.706023],[-156.213156,20.706984],[-156.204746,20.717798],[-156.215128,20.706384],[-156.23838,20.71305],[-156.252553,20.709793]]}},{"type":"Feature","id":"strava-9635633600","properties":{"featureId":"strava-9635633600","adventureIds":["midland-hill"],"date":"2023-08-12","stravaActivityId":"9635633600","activityName":"Afternoon Hike","category":"summit"},"geometry":{"type":"LineString","coordinates":[[-106.122322,38.8469],[-106.096135,38.841918],[-106.116544,38.843981],[-106.117904,38.839274],[-106.123552,38.846178]]}},{"type":"Feature","id":"strava-5301627345","properties":{"featureId":"strava-5301627345","adventureIds":["clingmans-dome"],"date":"2021-05-15","stravaActivityId":"5301627345","activityName":"Morning Hike","category":"summit"},"geometry":{"type":"LineString","coordinates":[[-83.496283,35.556942],[-83.499472,35.562824],[-83.49599,35.55646]]}},{"type":"Feature","id":"strava-5309635526","properties":{"featureId":"strava-5309635526","adventureIds":["mount-le-conte"],"date":"2021-05-16","stravaActivityId":"5309635526","activityName":"Morning Hike","category":"summit"},"geometry":{"type":"LineString","coordinates":[[-83.451351,35.629579],[-83.437869,35.634542],[-83.438392,35.640452],[-83.442306,35.636191],[-83.447911,35.639612],[-83.435591,35.650918],[-83.444447,35.651064],[-83.446021,35.654965],[-83.436649,35.654278],[-83.445906,35.654967],[-83.444226,35.651053],[-83.435491,35.650827],[-83.447828,35.639531],[-83.442401,35.636195],[-83.437881,35.640219],[-83.437887,35.63439],[-83.450917,35.62907],[-83.480872,35.641012]]}},{"type":"Feature","id":"strava-9552205777","properties":{"featureId":"strava-9552205777","adventureIds":["san-gabriel-peak"],"date":"2023-07-30","stravaActivityId":"9552205777","activityName":"Morning Hike","category":"summit"},"geometry":{"type":"LineString","coordinates":[[-118.093499,34.2392],[-118.099912,34.239436],[-118.10183,34.244504],[-118.099966,34.239497],[-118.093427,34.239313]]}},{"type":"Feature","id":"strava-4469336427","properties":{"featureId":"strava-4469336427","adventureIds":["hawksbill-mountain"],"date":"2020-12-13","stravaActivityId":"4469336427","activityName":"Morning Hike","category":"summit"},"geometry":{"type":"LineString","coordinates":[[-78.358205,38.537096],[-78.38353,38.555655],[-78.395759,38.555148],[-78.375483,38.557473],[-78.370545,38.553389],[-78.364298,38.564776],[-78.352411,38.556963],[-78.34847,38.539452]]}},{"type":"Feature","id":"strava-4312103411","properties":{"featureId":"strava-4312103411","adventureIds":["old-rag-mountain"],"date":"2020-10-18","stravaActivityId":"4312103411","activityName":"Oldrag - Oldrag","category":"summit"},"geometry":{"type":"LineString","coordinates":[[-78.338808,38.548667],[-78.332238,38.556855],[-78.321167,38.549902],[-78.314502,38.551937],[-78.322497,38.549471],[-78.319963,38.552651],[-78.332217,38.556834],[-78.339209,38.549592]]}},{"type":"Feature","id":"strava-4337907837","properties":{"featureId":"strava-4337907837","adventureIds":["mount-wachusett"],"date":"2020-11-14","stravaActivityId":"4337907837","activityName":"Lunch Hike","category":"summit"},"geometry":{"type":"LineString","coordinates":[[-71.881791,42.494186],[-71.879914,42.488623],[-71.895363,42.492673],[-71.890204,42.486463],[-71.901689,42.477461],[-71.89399,42.474414],[-71.882403,42.480584],[-71.881885,42.494563]]}},{"type":"Feature","id":"strava-8684346989","properties":{"featureId":"strava-8684346989","adventureIds":["mount-lamlam"],"date":"2023-03-09","stravaActivityId":"8684346989","activityName":"Afternoon Hike","category":"summit"},"geometry":{"type":"LineString","coordinates":[[144.666047,13.325843],[144.671261,13.332178],[144.667981,13.338307],[144.671263,13.332155],[144.666092,13.325795]]}},{"type":"Feature","id":"strava-7123707788","properties":{"featureId":"strava-7123707788","adventureIds":["mount-jumullong-manglo"],"date":"2022-05-11","stravaActivityId":"7123707788","activityName":"Afternoon Hike","category":"summit"},"geometry":{"type":"LineString","coordinates":[[144.66637,13.325811],[144.67123,13.332113],[144.672377,13.329338],[144.670817,13.333489],[144.667957,13.32551]]}}]}